district_id,district_name,complex_area_id,complex_area_name,complex_id,school_id,esis_id,long_school_name,esis_name,complex_name,ca_name,strivehiname,commonname,graderange,latitude,longitude,address,zipcode,school_id
2,Central,3,Aiea Moanalua-Radford,50,200,200,Aiea Elementary,Aiea Elem School,Aiea,Aiea-Moanalua-Radford,Aiea Elementary,Aiea El,K-6,21.3758,-157.928,99-370 Moanalua Road,96701,200
2,Central,3,Aiea Moanalua-Radford,50,201,201,Aiea Intermediate,Aiea Inter School,Aiea,Aiea-Moanalua-Radford,Aiea Intermediate,Aiea Inter,8-Jul,21.38,-157.924,99-600 Kulawea Street,96701,201
2,Central,3,Aiea Moanalua-Radford,50,202,202,Aiea High,Aiea High School,Aiea,Aiea-Moanalua-Radford,Aiea High,Aiea High,12-Sep,21.3836,-157.93,98-1276 Ulune Street,96701,202
2,Central,3,Aiea Moanalua-Radford,50,227,227,Alvah A. Scott Elementary,Scott Elem School,Aiea,Aiea-Moanalua-Radford,Scott Elementary,Scott El,K-6,21.3843,-157.936,98-1230 Moanalua Road,96701,227
2,Central,3,Aiea Moanalua-Radford,50,233,233,Waimalu Elementary,Waimalu Elem School,Aiea,Aiea-Moanalua-Radford,Waimalu Elementary,Waimalu El,K-6,21.39,-157.95,98-825 Moanalua Road,96701,233
2,Central,3,Aiea Moanalua-Radford,50,235,235,Gustave H. Webling Elementary,Webling Elem School,Aiea,Aiea-Moanalua-Radford,Webling Elementary,Webling El,K-6,21.381,-157.92,99-370 Paihi Street,96701,235
2,Central,3,Aiea Moanalua-Radford,50,243,243,Pearl Ridge Elementary,Pearl Ridge Elem School,Aiea,Aiea-Moanalua-Radford,Pearl Ridge Elementary,Pearl Ridge El,K-6,21.3886,-157.945,98-940 Moanalua Road,96701,243
2,Central,3,Aiea Moanalua-Radford,51,217,217,Moanalua Elementary,Moanalua Elem School,Moanalua,Aiea-Moanalua-Radford,Moanalua Elementary,Moanalua El,K-6,21.349,-157.891,1337 Mahiole Street,96819,217
2,Central,3,Aiea Moanalua-Radford,51,218,218,Moanalua High,Moanalua High School,Moanalua,Aiea-Moanalua-Radford,Moanalua High,Moanalua High,12-Sep,21.347,-157.9,2825 Ala Ilima Street,96818,218
2,Central,3,Aiea Moanalua-Radford,51,219,219,Moanalua Middle,Moanalua Middle School,Moanalua,Aiea-Moanalua-Radford,Moanalua Middle,Moanalua Mid,8-Jul,21.3499,-157.893,1289 Mahiole Street,96819,219
2,Central,3,Aiea Moanalua-Radford,51,225,225,Red Hill Elementary,Red Hill Elem School,Moanalua,Aiea-Moanalua-Radford,Red Hill Elementary,Red Hill El,K-6,21.3368,-157.885,1265 Ala Kula Place,96819,225
2,Central,3,Aiea Moanalua-Radford,51,228,228,William R. Shafter Elementary,Shafter Elem School,Moanalua,Aiea-Moanalua-Radford,Shafter Elementary,Shafter El,K-6,21.3444,-157.883,2 Fort Shafter,96819,228
2,Central,3,Aiea Moanalua-Radford,51,239,239,Salt Lake Elementary,Salt Lake Elem School,Moanalua,Aiea-Moanalua-Radford,Salt Lake Elementary,Salt Lake El,K-6,21.3517,-157.911,1131 Ala Lilikoi Street,96818,239
2,Central,3,Aiea Moanalua-Radford,52,203,203,Aliamanu Elementary,Aliamanu Elem School,Radford,Aiea-Moanalua-Radford,Aliamanu Elementary,Aliamanu El,K-6,21.3435,-157.914,3265 Salt Lake Boulevard,96818,203
2,Central,3,Aiea Moanalua-Radford,52,204,204,Aliamanu Middle,Aliamanu Middle School,Radford,Aiea-Moanalua-Radford,Aliamanu Middle,Aliamanu Mid,8-Jul,21.3425,-157.915,3271 Salt Lake Boulevard,96818,204
2,Central,3,Aiea Moanalua-Radford,52,209,209,Horace Meek Hickam Elementary,Hickam Elem School,Radford,Aiea-Moanalua-Radford,Hickam Elementary,Hickam El,K-6,21.3437,-157.962,825 Manzelman Circle,96818,209
2,Central,3,Aiea Moanalua-Radford,52,215,215,Makalapa Elementary,Makalapa Elem School,Radford,Aiea-Moanalua-Radford,Makalapa Elementary,Makalapa El,K-6,21.3615,-157.928,4435 Salt Lake Blvd.,96818,215
2,Central,3,Aiea Moanalua-Radford,52,220,220,Mokulele Elementary,Mokulele Elem School,Radford,Aiea-Moanalua-Radford,Mokulele Elementary,Mokulele El,K-6,21.3431,-157.941,250 Aupaka Street,96818,220
2,Central,3,Aiea Moanalua-Radford,52,221,221,Chester W. Nimitz Elementary,Nimitz Elem School,Radford,Aiea-Moanalua-Radford,Nimitz Elementary,Nimitz El,K-6,21.3406,-157.936,520 Main Street,96818,221
2,Central,3,Aiea Moanalua-Radford,52,222,222,Pearl Harbor Elementary,Pearl Harbor Elem School,Radford,Aiea-Moanalua-Radford,Pearl Harbor Elementary,Pearl Harbor El,K-6,21.3464,-157.93,1 Moanalua Ridge,96818,222
2,Central,3,Aiea Moanalua-Radford,52,223,223,Pearl Harbor Kai Elementary,Pearl Harbor Kai Elem School,Radford,Aiea-Moanalua-Radford,Pearl Harbor Kai Elementary,Pearl Harbor Kai El,K-6,21.3487,-157.938,1 C Avenue,96818,223
2,Central,3,Aiea Moanalua-Radford,52,224,224,Admiral Arthur W. Radford High,Radford High School,Radford,Aiea-Moanalua-Radford,Radford High,Radford High,12-Sep,21.3598,-157.928,4361 Salt Lake Boulevard,96818,224
6,Maui,13,Baldwin-Kekaulike-Maui,76,400,400,Henry Perrine Baldwin High,Baldwin High School,Baldwin,Baldwin-Kekaulike-Maui,Baldwin High,Baldwin High,12-Sep,20.8901,-156.492,1650 Kaahumanu Avenue,96793,400
6,Maui,13,Baldwin-Kekaulike-Maui,76,404,404,Iao Intermediate,Iao Inter School,Baldwin,Baldwin-Kekaulike-Maui,Iao Intermediate,Iao Inter,8-Jun,20.8849,-156.501,260 South Market Streeet,96793,404
6,Maui,13,Baldwin-Kekaulike-Maui,76,424,424,Waihee Elementary,Waihee Elem School,Baldwin,Baldwin-Kekaulike-Maui,Waihee Elementary,Waihee El,K-5,20.9342,-156.515,2125 Kahekili Highway,96793,424
6,Maui,13,Baldwin-Kekaulike-Maui,76,425,425,Wailuku Elementary,Wailuku Elem School,Baldwin,Baldwin-Kekaulike-Maui,Wailuku Elementary,Wailuku El,K-5,20.8836,-156.504,355 S. High Street,96793,425
6,Maui,13,Baldwin-Kekaulike-Maui,76,436,436,Pu'u Kukui Elementary,Puu Kukui Elem School,Baldwin,Baldwin-Kekaulike-Maui,Puu Kukui Elementary,Puu Kukui El,K-5,20.8768,-156.508,3700 Kehalani Mauka Parkway,96793,436
6,Maui,13,Baldwin-Kekaulike-Maui,78,401,401,Haiku Elementary,Haiku Elem School,Kekaulike,Baldwin-Kekaulike-Maui,Haiku Elementary,Haiku El,K-5,20.9287,-156.322,105 Pauwela Road,96708,401
6,Maui,13,Baldwin-Kekaulike-Maui,78,412,412,Kula Elementary,Kula Elem School,Kekaulike,Baldwin-Kekaulike-Maui,Kula Elementary,Kula El,K-5,20.761,-156.33,5000 Kula Highway,96790,412
6,Maui,13,Baldwin-Kekaulike-Maui,78,417,417,Makawao Elementary,Makawao Elem School,Kekaulike,Baldwin-Kekaulike-Maui,Makawao Elementary,Makawao El,K-5,20.843,-156.33,3542 Baldwin Avenue,96768,417
6,Maui,13,Baldwin-Kekaulike-Maui,78,420,420,Samuel Enoka Kalama Intermediate,Kalama Inter School,Kekaulike,Baldwin-Kekaulike-Maui,Kalama Intermediate,Kalama Inter,8-Jun,20.8505,-156.321,120 Makani Road,96768,420
6,Maui,13,Baldwin-Kekaulike-Maui,78,422,422,Paia Elementary,Paia Elem School,Kekaulike,Baldwin-Kekaulike-Maui,Paia Elementary,Paia El,K-5,20.9142,-156.378,955 Baldwin Avenue,96779,422
6,Maui,13,Baldwin-Kekaulike-Maui,78,426,426,Pukalani Elementary,Pukalani Elem School,Kekaulike,Baldwin-Kekaulike-Maui,Pukalani Elementary,Pukalani El,K-5,20.8405,-156.345,2945 Iolani Street,96768,426
6,Maui,13,Baldwin-Kekaulike-Maui,78,435,435,King Kekaulike High,Kekaulike High School,Kekaulike,Baldwin-Kekaulike-Maui,King Kekaulike High,Kekaulike High,12-Sep,20.843,-156.33,121 Kula Highway,96768,435
6,Maui,13,Baldwin-Kekaulike-Maui,77,405,405,Kahului Elementary,Kahului Elem School,Maui,Baldwin-Kekaulike-Maui,Kahului Elementary,Kahului El,K-5,20.8785,-156.471,410 South Hina Avenue,96732,405
6,Maui,13,Baldwin-Kekaulike-Maui,77,409,409,Kihei Elementary,Kihei Elem School,Maui,Baldwin-Kekaulike-Maui,Kihei Elementary,Kihei El,K-5,20.7482,-156.45,250 E. Lipoa Street,96753,409
6,Maui,13,Baldwin-Kekaulike-Maui,77,416,416,Lihikai Elementary,Lihikai Elem School,Maui,Baldwin-Kekaulike-Maui,Lihikai Elementary,Lihikai El,K-5,20.8805,-156.485,335 S. Papa Avenue,96732,416
6,Maui,13,Baldwin-Kekaulike-Maui,77,418,418,Maui High,Maui High School,Maui,Baldwin-Kekaulike-Maui,Maui High,Maui High,12-Sep,20.8747,-156.471,660 S. Lono Avenue,96732,418
6,Maui,13,Baldwin-Kekaulike-Maui,77,428,428,Maui Waena Intermediate,Maui Waena Inter School,Maui,Baldwin-Kekaulike-Maui,Maui Waena Intermediate,Maui Waena Inter,8-Jun,20.8743,-156.485,795 Onehee Avenue,96732,428
6,Maui,13,Baldwin-Kekaulike-Maui,77,430,430,Lokelani Intermediate,Lokelani Inter School,Maui,Baldwin-Kekaulike-Maui,Lokelani Intermediate,Lokelani Inter,8-Jun,20.7461,-156.449,1401 Liloa Drive,96753,430
6,Maui,13,Baldwin-Kekaulike-Maui,77,431,431,Kamalii Elementary,Kamalii Elem School,Maui,Baldwin-Kekaulike-Maui,Kamalii Elementary,Kamalii El,K-5,20.7221,-156.44,180 Alanui Ke Alii,96753,431
6,Maui,13,Baldwin-Kekaulike-Maui,77,433,433,Pomaikai Elementary School,Pomaikai Elem School,Maui,Baldwin-Kekaulike-Maui,Pomaikai Elementary School,Pomaikai El,K-5,20.8653,-156.487,4650 S. Kamehameha Avenue,96732,433
3,Leeward,5,Campbell-Kapolei,56,252,252,James Campbell High,Campbell High School,Campbell,Campbell-Kapolei,Campbell High,Campbell High,12-Sep,21.3163,-158.008,91-980 North Rd,92746,252
3,Leeward,5,Campbell-Kapolei,56,253,253,Ewa Elementary,Ewa Elem School,Campbell,Campbell-Kapolei,Ewa Elementary,Ewa El,K-6,21.3445,-158.034,91-1280 Renton Road,96706,253
3,Leeward,5,Campbell-Kapolei,56,254,254,Ewa Beach Elementary,Ewa Beach Elem School,Campbell,Campbell-Kapolei,Ewa Beach Elementary,Ewa Beach El,K-6,21.3149,-158.015,91-740 Papipi Road,96706,254
3,Leeward,5,Campbell-Kapolei,56,256,256,Iroquois Point Elementary,Iroquois Point Elem School,Campbell,Campbell-Kapolei,Iroquois Point Elementary,Iroquois Point El,K-6,21.3197,-157.982,5553 Cormorant Avenue,96706,256
3,Leeward,5,Campbell-Kapolei,56,269,269,Pohakea Elementary,Pohakea Elem School,Campbell,Campbell-Kapolei,Pohakea Elementary,Pohakea El,K-6,21.314,-158.01,91-750 Ft. Weaver Road,96706,269
3,Leeward,5,Campbell-Kapolei,56,279,279,Ilima Intermediate,Ilima Inter School,Campbell,Campbell-Kapolei,Ilima Intermediate,Ilima Inter,8-Jul,21.316,-158.012,91-884 Ft. Weaver Road,96706,279
3,Leeward,5,Campbell-Kapolei,56,280,280,Holomua Elementary,Holomua Elem School,Campbell,Campbell-Kapolei,Holomua Elementary,Holomua El,K-6,21.3392,-158.02,91-1561 Keaunui Drive,96706,280
3,Leeward,5,Campbell-Kapolei,56,280,773,Holomua Elementary,Holomua Elementary Blue,Campbell,Campbell-Kapolei,Holomua Elementary,Holomua El Blue,K-6,21.3392,-158.02,91-1561 Keaunui Drive,96706,280
3,Leeward,5,Campbell-Kapolei,56,280,772,Holomua Elementary,Holomua Elementary Green,Campbell,Campbell-Kapolei,Holomua Elementary,Holomua El Green,K-6,21.3392,-158.02,91-1561 Keaunui Drive,96706,280
3,Leeward,5,Campbell-Kapolei,56,280,774,Holomua Elementary,Holomua Elementary Red,Campbell,Campbell-Kapolei,Holomua Elementary,Holomua El Red,K-6,21.3392,-158.02,91-1561 Keaunui Drive,96706,280
3,Leeward,5,Campbell-Kapolei,56,280,771,Holomua Elementary,Holomua Elementary Yellow,Campbell,Campbell-Kapolei,Holomua Elementary,Holomua El Yellow,K-6,21.3392,-158.02,91-1561 Keaunui Drive,96706,280
3,Leeward,5,Campbell-Kapolei,56,281,281,Kaimiloa Elementary,Kaimiloa Elem School,Campbell,Campbell-Kapolei,Kaimiloa Elementary,Kaimiloa El,K-6,21.3198,-158.009,91-1028 Kaunolu Street,96706,281
3,Leeward,5,Campbell-Kapolei,56,294,294,Keoneula Elementary,Keoneula Elem School,Campbell,Campbell-Kapolei,Keoneula Elementary,Keoneula El,K-6,21.3223,-158.021,91-970 Kaileolea Drive,96706,294
3,Leeward,5,Campbell-Kapolei,56,296,296,Ewa Makai Middle School,Ewa Makai Middle School,Campbell,Campbell-Kapolei,Ewa Makai Middle,Ewa Makai Middle,,21.3228,-158.027,91-6291 Kapolei Parkway,96706,296
3,Leeward,5,Campbell-Kapolei,57,251,251,Barbers Point Elementary,Barbers Point Elem School,Kapolei,Campbell-Kapolei,Barbers Point Elementary,Barbers Point El,K-5,21.3221,-158.082,3001 Boxer Road,96707,251
3,Leeward,5,Campbell-Kapolei,57,259,259,Makakilo Elementary,Makakilo Elem School,Kapolei,Campbell-Kapolei,Makakilo Elementary,Makakilo El,K-5,21.3444,-158.085,92-675 Anipeahi Street,96707,259
3,Leeward,5,Campbell-Kapolei,57,282,282,Kapolei Elementary,Kapolei Elem School,Kapolei,Campbell-Kapolei,Kapolei Elementary,Kapolei El,K-5,21.3339,-158.064,91-1119 Kamaaha Loop,96707,282
3,Leeward,5,Campbell-Kapolei,57,282,783,Kapolei Elementary,Kapolei Elem School Blue,Kapolei,Campbell-Kapolei,Kapolei Elementary Blue,Kapolei El Blue,K-5,21.3339,-158.064,91-1119 Kamaaha Loop,96707,282
3,Leeward,5,Campbell-Kapolei,57,282,782,Kapolei Elementary,Kapolei Elem School Green,Kapolei,Campbell-Kapolei,Kapolei Elementary Green,Kapolei ElGreen,K-5,21.3339,-158.064,91-1119 Kamaaha Loop,96707,282
3,Leeward,5,Campbell-Kapolei,57,282,784,Kapolei Elementary,Kapolei Elem School Red,Kapolei,Campbell-Kapolei,Kapolei Elementary Red,Kapolei El Red,K-5,21.3339,-158.064,91-1119 Kamaaha Loop,96707,282
3,Leeward,5,Campbell-Kapolei,57,282,781,Kapolei Elementary,Kapolei Elem School Yellow,Kapolei,Campbell-Kapolei,Kapolei Elementary Yellow,Kapolei El Yellow,K-5,21.3339,-158.064,91-1119 Kamaaha Loop,96707,282
3,Leeward,5,Campbell-Kapolei,57,286,286,Mauka Lani Elementary,Mauka Lani Elem School,Kapolei,Campbell-Kapolei,Mauka Lani Elementary,Mauka Lani El,K-5,21.3588,-158.083,92-1300 Panana Street,96707,286
3,Leeward,5,Campbell-Kapolei,57,291,291,Kapolei Middle,Kapolei Middle School,Kapolei,Campbell-Kapolei,Kapolei Middle,Kapolei Mid,8-Jun,21.3325,-158.057,91-5335 Kapolei Parkway,96707,291
3,Leeward,5,Campbell-Kapolei,57,291,913,Kapolei Middle,Kapolei Middle School - Track1,Kapolei,Campbell-Kapolei,Kapolei Middle,Kapolei Mid Track1,8-Jun,21.3325,-158.057,91-5335 Kapolei Parkway,96707,291
3,Leeward,5,Campbell-Kapolei,57,291,911,Kapolei Middle,Kapolei Middle School - Track2,Kapolei,Campbell-Kapolei,Kapolei Middle,Kapolei Mid Track2,8-Jun,21.3325,-158.057,91-5335 Kapolei Parkway,96707,291
3,Leeward,5,Campbell-Kapolei,57,291,910,Kapolei Middle,Kapolei Middle School - Track3,Kapolei,Campbell-Kapolei,Kapolei Middle,Kapolei Mid Track3,8-Jun,21.3325,-158.057,91-5335 Kapolei Parkway,96707,291
3,Leeward,5,Campbell-Kapolei,57,291,912,Kapolei Middle,Kapolei Middle School - Track4,Kapolei,Campbell-Kapolei,Kapolei Middle,Kapolei Mid Track4,8-Jun,21.3325,-158.057,91-5335 Kapolei Parkway,96707,291
3,Leeward,5,Campbell-Kapolei,57,292,292,Kapolei High,Kapolei High School,Kapolei,Campbell-Kapolei,Kapolei High,Kapolei High,12-Sep,21.3279,-158.068,91-5007 Kapolei Parkway,96707,292
4,Windward,8,Castle-Kahuku,62,301,301,James B. Castle High,Castle High School,Castle,Castle-Kahuku,Castle High,Castle High,12-Sep,21.4035,-157.794,45-386 Kaneohe Bay Drive,96744,301
4,Windward,8,Castle-Kahuku,62,304,304,Heeia Elementary,Heeia Elem School,Castle,Castle-Kahuku,Heeia Elementary,Heeia El,K-6,21.4185,-157.809,46-202 Haiku Road,96744,304
4,Windward,8,Castle-Kahuku,62,306,306,Kahaluu Elementary,Kahaluu Elem School,Castle,Castle-Kahuku,Kahaluu Elementary,Kahaluu El,K-6,21.4578,-157.846,47-280 Waihee Road,96744,306
4,Windward,8,Castle-Kahuku,62,313,313,Kaneohe Elementary,Kaneohe Elem School,Castle,Castle-Kahuku,Kaneohe Elementary,Kaneohe El,K-6,21.3964,-157.796,45-495 Kamehameha Highway,96744,313
4,Windward,8,Castle-Kahuku,62,314,314,Puohala Elementary,Puohala Elem School,Castle,Castle-Kahuku,Puohala Elementary,Puohala El,K-6,21.4098,-157.791,45-233 Kulauli Street,96744,314
4,Windward,8,Castle-Kahuku,62,315,315,Kapunahala Elementary,Kapunahala Elem School,Castle,Castle-Kahuku,Kapunahala Elementary,Kapunahala El,K-6,21.4081,-157.804,45-828 Anoi Road,96744,315
4,Windward,8,Castle-Kahuku,62,318,318,Samuel Wilder King Intermediate,King Inter School,Castle,Castle-Kahuku,King Intermediate,King Inter,8-Jul,21.4266,-157.806,46-155 Kamehameha Highway,96744,318
4,Windward,8,Castle-Kahuku,62,323,323,Benjamin Parker Elementary,Parker Elem School,Castle,Castle-Kahuku,Parker Elementary,Parker El,K-6,21.4169,-157.802,45-259 Waikalua Road,96744,323
4,Windward,8,Castle-Kahuku,62,326,326,Waiahole Elementary,Waiahole Elem School,Castle,Castle-Kahuku,Waiahole Elementary,Waiahole El,K-6,21.4833,-157.852,48-215 Waiahole Valley Road,96744,326
4,Windward,8,Castle-Kahuku,62,335,335,Ahuimanu Elementary,Ahuimanu Elem School,Castle,Castle-Kahuku,Ahuimanu Elementary,Ahuimanu El,K-6,21.4351,-157.831,47-470 Hui Aeko Place,96744,335
4,Windward,8,Castle-Kahuku,63,303,303,Hauula Elementary,Hauula Elem School,Kahuku,Castle-Kahuku,Hauula Elementary,Hauula El,K-6,21.6063,-157.908,54-046 Kamehameha Highway,96717,303
4,Windward,8,Castle-Kahuku,63,305,305,Kaaawa Elementary,Kaaawa Elem School,Kahuku,Castle-Kahuku,Kaaawa Elementary,Kaaawa El,K-6,21.5479,-157.847,51-296 Kamehameha Highway,96730,305
4,Windward,8,Castle-Kahuku,63,307,307,Kahuku High and Intermediate,Kahuku High & Inter School,Kahuku,Castle-Kahuku,Kahuku High & Intermediate,Kahuku H&I,12-Jul,21.6748,-157.948,56-490 Kamehameha Highway,96731,307
4,Windward,8,Castle-Kahuku,63,307,710,Kahuku High and Intermediate,Kahuku High and Inter School,Kahuku,Castle-Kahuku,Kahuku High & Intermediate,Kahuku Inter,12-Jul,21.6748,-157.948,56-490 Kamehameha Highway,96731,307
4,Windward,8,Castle-Kahuku,63,307,711,Kahuku High and Intermediate,Kahuku High/Inter School,Kahuku,Castle-Kahuku,Kahuku High & Intermediate,Kahuku High,12-Jul,21.6748,-157.948,56-490 Kamehameha Highway,96731,307
4,Windward,8,Castle-Kahuku,63,319,319,Laie Elementary,Laie Elem School,Kahuku,Castle-Kahuku,Laie Elementary,Laie El,K-6,21.6497,-157.925,55-109 Kulanui Street,96762,319
4,Windward,8,Castle-Kahuku,63,325,325,Sunset Beach Elementary,Sunset Beach Elem School,Kahuku,Castle-Kahuku,Sunset Beach Elementary,Sunset Beach El,K-6,21.6647,-158.05,59-360 Kamehameha Highway,96712,325
4,Windward,8,Castle-Kahuku,63,331,331,Kahuku Elementary,Kahuku Elem School,Kahuku,Castle-Kahuku,Kahuku Elementary,Kahuku El,K-6,21.6745,-157.951,56-170 Pualalea Street,96731,331
9,Charter,20,Charter Complex Area,86,149,149,Wai'alae Elementary PCS,Waialae Elem School - PCS,Charter,Charter,Waialae Elementary,Waialae El,K-5,21.2769,-157.792,"1045 19th Avenue,",96816,149
9,Charter,20,Charter Complex Area,86,275,275,Kamaile Academy PCS,Kamaile Academy - PCS,Charter,Charter,Kamaile Academy,Kamaile Academy,K-11,21.4569,-158.195,85-180 Ala Akau Street,96792,275
9,Charter,20,Charter Complex Area,86,275,975,Kamaile Academy PCS,Kamaile Academy Elem School,Charter,Charter,Kamaile Academy,Kamaile Academy El,K-11,21.4569,-158.195,85-180 Ala Akau Street,96792,275
9,Charter,20,Charter Complex Area,86,275,977,Kamaile Academy PCS,Kamaile Academy High School,Charter,Charter,Kamaile Academy,Kamaile Academy High,K-11,21.4569,-158.195,85-180 Ala Akau Street,96792,275
9,Charter,20,Charter Complex Area,86,275,976,Kamaile Academy PCS,Kamaile Academy Middle School,Charter,Charter,Kamaile Academy,Kamaile Academy Mid,K-11,21.4569,-158.195,85-180 Ala Akau Street,96792,275
9,Charter,20,Charter Complex Area,86,320,320,Lanikai Elementary PCS,Lanikai Elem School - PCS,Charter,Charter,Lanikai Elementary,Lanikai El,JK-6,21.3938,-157.726,140 Alala Road,96734,320
9,Charter,20,Charter Complex Area,86,377,377,Laupahoehoe Community - PCS,Laupahoehoe Community - PCS,Charter,Charter,Laupahoehoe High & Elementary,Laupahoehoe H&E,Pre K-12,19.9823,-155.231,352065 Old Mamalahoa Hwy,96764,377
9,Charter,20,Charter Complex Area,86,377,820,Laupahoehoe Community - PCS,Laupahoehoe Community Elem-PCS,Charter,Charter,Laupahoehoe High & Elementary,Laupahoehoe El,Pre K-12,19.9823,-155.231,352065 Old Mamalahoa Hwy,96764,377
9,Charter,20,Charter Complex Area,86,377,822,Laupahoehoe Community - PCS,Laupahoehoe Community High-PCS,Charter,Charter,Laupahoehoe High & Elementary,Laupahoehoe High,Pre K-12,19.9823,-155.231,352065 Old Mamalahoa Hwy,96764,377
9,Charter,20,Charter Complex Area,86,377,821,Laupahoehoe Community - PCS,Laupahoehoe Community Mid-PCS,Charter,Charter,Laupahoehoe High & Elementary,Laupahoehoe Mid,Pre K-12,19.9823,-155.231,352065 Old Mamalahoa Hwy,96764,377
9,Charter,20,Charter Complex Area,86,394,394,Waimea Middle PCCS,Waimea Middle School- PCS,Charter,Charter,Waimea Middle,Waimea Mid,8-Jun,20.0181,-155.67,671229 Mamalahoa Hwy,96743,394
9,Charter,20,Charter Complex Area,86,396,396,Connections NCPCS,Connections - PCS,Charter,Charter,Connections,Connections,K-12,19.7252,-155.087,174 Kamehameha Ave,96720,396
9,Charter,20,Charter Complex Area,86,396,715,Connections NCPCS,Connections Elem School - PCS,Charter,Charter,Connections,Connections El,K-12,19.7252,-155.087,174 Kamehameha Ave,96720,396
9,Charter,20,Charter Complex Area,86,396,717,Connections NCPCS,Connections High School - PCS,Charter,Charter,Connections,Connections High,K-12,19.7252,-155.087,174 Kamehameha Ave,96720,396
9,Charter,20,Charter Complex Area,86,396,716,Connections NCPCS,Connections Middle School -PCS,Charter,Charter,Connections,Connections Mid,K-12,19.7252,-155.087,174 Kamehameha Ave,96720,396
9,Charter,20,Charter Complex Area,86,397,397,Kanu o ka 'Aina NCPCS,Kanu O Ka Aina - PCS,Charter,Charter,Kanu o ka Aina,Kanu o ka Aina,K-12,20.0165,-155.655,65-1170 Opelo Road,96743,397
9,Charter,20,Charter Complex Area,86,397,775,Kanu o ka 'Aina NCPCS,Kanu O Ka Aina Elem - PCS,Charter,Charter,Kanu o ka Aina,Kanu O Ka Aina El,K-12,20.0165,-155.655,65-1170 Opelo Road,96743,397
9,Charter,20,Charter Complex Area,86,397,777,Kanu o ka 'Aina NCPCS,Kanu O Ka Aina High - PCS,Charter,Charter,Kanu o ka Aina,Kanu O Ka Aina High,K-12,20.0165,-155.655,65-1170 Opelo Road,96743,397
9,Charter,20,Charter Complex Area,86,397,776,Kanu o ka 'Aina NCPCS,Kanu O Ka Aina Middle - PCS,Charter,Charter,Kanu o ka Aina,Kanu O Ka Aina Mid,K-12,20.0165,-155.655,65-1170 Opelo Road,96743,397
9,Charter,20,Charter Complex Area,86,398,398,Na Wai Ola NCPCS,Na Wai Ola - PCS,Charter,Charter,Waters of Life,Waters of Life,K-8,19.5488,-155.109,18-1355 Volcano Rd #711539,96771,398
9,Charter,20,Charter Complex Area,86,398,835,Na Wai Ola NCPCS,Na Wai Ola Elem - PCS,Charter,Charter,Waters of Life,Waters of Life El,K-8,19.5488,-155.109,18-1355 Volcano Rd #711539,96771,398
9,Charter,20,Charter Complex Area,86,398,836,Na Wai Ola NCPCS,Na Wai Ola Mid - PCS,Charter,Charter,Waters of Life,Waters of Life Mid,K-8,19.5488,-155.109,18-1355 Volcano Rd #711539,96771,398
9,Charter,20,Charter Complex Area,86,399,399,West Hawaii Explorations Academy PCS,West Hawaii Explorations -PCS,Charter,Charter,West Hawaii Explorations,West Hawaii Explorations,12-Jun,19.7213,-156.054,734460 Queen Kaahumanu Hwy,96740,399
9,Charter,20,Charter Complex Area,86,399,847,West Hawaii Explorations Academy PCS,West HI Explorations High -PCS,Charter,Charter,West Hawaii Explorations,West Hawaii Explorations High,12-Jun,19.7213,-156.054,734460 Queen Kaahumanu Hwy,96740,399
9,Charter,20,Charter Complex Area,86,399,846,West Hawaii Explorations Academy PCS,West HI Explorations Mid -PCS,Charter,Charter,West Hawaii Explorations,West Hawaii Explorations Mid,12-Jun,19.7213,-156.054,734460 Queen Kaahumanu Hwy,96740,399
9,Charter,20,Charter Complex Area,86,411,411,Kualapu'u Elementary NCPCCS,Kualapuu Elem School - PCS,Charter,Charter,Kualapuu Elementary ,Kualapuu El,PreK-6,21.1614,-157.043,260 Farrington Ave,96757,411
9,Charter,20,Charter Complex Area,86,466,466,Kula Aupuni Niihau A Kahelelani Aloha NCPCS,Kula Aupuni Niihau - PCS,Charter,Charter,Kula Aupuni Niihau,Kula Aupuni Niihau,K-12,21.9705,-159.713,8315 Kekaha Road,96752,466
9,Charter,20,Charter Complex Area,86,466,940,Kula Aupuni Niihau A Kahelelani Aloha NCPCS,Kula Aupuni Niihau Elem,Charter,Charter,Kula Aupuni Niihau,Kula Aupuni Niihau El,K-12,21.9705,-159.713,8315 Kekaha Road,96752,466
9,Charter,20,Charter Complex Area,86,466,942,Kula Aupuni Niihau A Kahelelani Aloha NCPCS,Kula Aupuni Niihau High,Charter,Charter,Kula Aupuni Niihau,Kula Aupuni Niihau High,K-12,21.9705,-159.713,8315 Kekaha Road,96752,466
9,Charter,20,Charter Complex Area,86,466,941,Kula Aupuni Niihau A Kahelelani Aloha NCPCS,Kula Aupuni Niihau Middle,Charter,Charter,Kula Aupuni Niihau,Kula Aupuni Niihau Mid,K-12,21.9705,-159.713,8315 Kekaha Road,96752,466
9,Charter,20,Charter Complex Area,86,540,540,Halau Ku Mana NCPCS,Halau Ku Mana - PCS,Charter,Charter,Halau Ku Mana,Halau Ku Mana,12-Jun,21.3128,-157.83,2101 Makiki Heights Drive,96822,540
9,Charter,20,Charter Complex Area,86,540,707,Halau Ku Mana NCPCS,Halau Ku Mana High School,Charter,Charter,Halau Ku Mana,Halau Ku Mana High,12-Jun,21.3128,-157.83,2102 Makiki Heights Drive,96822,540
9,Charter,20,Charter Complex Area,86,540,706,Halau Ku Mana NCPCS,Halau Ku Mana Middle School,Charter,Charter,Halau Ku Mana,Halau Ku Mana Mid,12-Jun,21.3128,-157.83,2103 Makiki Heights Drive,96822,540
9,Charter,20,Charter Complex Area,86,541,541,Voyager PCS,Voyager - PCS,Charter,Charter,Voyager,Voyager,K-8,21.2991,-157.861,670 Auahi Street,96813,541
9,Charter,20,Charter Complex Area,86,541,970,Voyager PCS,Voyager Elem,Charter,Charter,Voyager,Voyager El,K-8,21.2991,-157.861,670 Auahi Street,96813,541
9,Charter,20,Charter Complex Area,86,541,971,Voyager PCS,Voyager Middle,Charter,Charter,Voyager,Voyager Mid,K-8,21.2991,-157.861,670 Auahi Street,96813,541
9,Charter,20,Charter Complex Area,86,542,542,Halau Lokahi NCPCS,Halau Lokahi - PCS,Charter,Charter,Halau Lokahi,Halau Lokahi ,K-12,21.3218,-157.878,429 Waiakamilo Road,96817,542
9,Charter,20,Charter Complex Area,86,542,735,Halau Lokahi NCPCS,Halau Lokahi Elem School - PCS,Charter,Charter,Halau Lokahi,Halau Lokahi El,K-12,21.3218,-157.878,429 Waiakamilo Road,96817,542
9,Charter,20,Charter Complex Area,86,542,737,Halau Lokahi NCPCS,Halau Lokahi High School - PCS,Charter,Charter,Halau Lokahi,Halau Lokahi High,K-12,21.3218,-157.878,429 Waiakamilo Road,96817,542
9,Charter,20,Charter Complex Area,86,542,736,Halau Lokahi NCPCS,Halau Lokahi Middle School-PCS,Charter,Charter,Halau Lokahi,Halau Lokahi Mid,K-12,21.3218,-157.878,429 Waiakamilo Road,96817,542
9,Charter,20,Charter Complex Area,86,543,543,University Laboratory School,University Laboratory School,Charter,Charter,Education Laboratory,Education Lab,K-12,21.2987,-157.822,1776 University Ave,96822,543
9,Charter,20,Charter Complex Area,86,544,544,Myron B. Thompson Academy NCPCS,Myron B.Thompson Academy - PCS,Charter,Charter,Thompson Academy,Thompson Academy,K-12,21.3076,-157.86,1040 Richards Street #220,96813,544
9,Charter,20,Charter Complex Area,86,545,930,Ka Waihona o ka Na'auao NCPCS,Ka Waihona O Ka Naauao Elem,Charter,Charter,Naauao,Naauao El,K-8,21.3799,-158.144,89-195 Farrington Highway,96792,545
9,Charter,20,Charter Complex Area,86,545,931,Ka Waihona o ka Na'auao NCPCS,Ka Waihona O Ka Naauao Middle,Charter,Charter,Naauao,Naauao Mid,K-8,21.3799,-158.144,89-195 Farrington Highway,96792,545
9,Charter,20,Charter Complex Area,86,545,545,Ka Waihona o ka Na'auao NCPCS,Ka Waihona O Ka Naauao-PCS,Charter,Charter,Naauao,Naauao,K-8,21.3799,-158.144,89-195 Farrington Highway,96792,545
9,Charter,20,Charter Complex Area,86,546,546,Hakipu'u Learning Center PCS,Hakipuu Learning Center - PCs,Charter,Charter,Hakipuu,Hakipuu,12-Apr,21.4093,-157.813,45-720 Keaahala Rd,96744,546
9,Charter,20,Charter Complex Area,86,546,725,Hakipu'u Learning Center PCS,Hakipuu Learning Ctr Elem-PCs,Charter,Charter,Hakipuu,Hakipuu El,12-Apr,21.4093,-157.813,45-720 Keaahala Rd,96744,546
9,Charter,20,Charter Complex Area,86,546,727,Hakipu'u Learning Center PCS,Hakipuu Learning Ctr High-PCs,Charter,Charter,Hakipuu,Hakipuu High,12-Apr,21.4093,-157.813,45-720 Keaahala Rd,96744,546
9,Charter,20,Charter Complex Area,86,546,726,Hakipu'u Learning Center PCS,Hakipuu Learning Ctr Mid-PCs,Charter,Charter,Hakipuu,Hakipuu Mid,12-Apr,21.4093,-157.813,45-720 Keaahala Rd,96744,546
9,Charter,20,Charter Complex Area,86,547,547,Ke Kula 'o Samuel M. Kamakau Laboratory PCS,Ke Kula O Kamakau - PCS,Charter,Charter,Kamakau,Kamakau,K-12,21.4058,-157.787,45 Kaneohe Bay Drive,96744,547
9,Charter,20,Charter Complex Area,86,548,765,Innovations PCS,Innovations Elem School PCS,Charter,Charter,Innovations,Innovations El,8-Jan,19.6321,-155.973,91-884 Ft. Weaver Road,96706,548
9,Charter,20,Charter Complex Area,86,548,766,Innovations PCS,Innovations Middle School-PCS,Charter,Charter,Innovations,Innovations Mid,8-Jan,19.6321,-155.973,91-884 Ft. Weaver Road,96706,548
9,Charter,20,Charter Complex Area,86,548,548,Innovations PCS,Innovations PCS,Charter,Charter,Innovations,Innovations,8-Jan,19.6321,-155.973,75-5815 Queen Kaahumanu Hwy ,96740,548
9,Charter,20,Charter Complex Area,86,549,549,Ke Ana La'ahana PCS,Ke Ana Laahana - PCS,Charter,Charter,Ke Ana Laahana,Ke Ana Laahana,12-Jul,19.7335,-155.036,162 Baker Avenue,96720,549
9,Charter,20,Charter Complex Area,86,549,951,Ke Ana La'ahana PCS,Ke Ana Laahana High,Charter,Charter,Ke Ana Laahana,Ke Ana Laahana High,12-Jul,19.7335,-155.036,162 Baker Avenue,96720,549
9,Charter,20,Charter Complex Area,86,549,950,Ke Ana La'ahana PCS,Ke Ana Laahana Middle,Charter,Charter,Ke Ana Laahana,Ke Ana Laahana Mid,12-Jul,19.7335,-155.036,162 Baker Avenue,96720,549
9,Charter,20,Charter Complex Area,86,551,551,Hawaii Technology Academy PCS,Hawaii Technology Academy-PCS,Charter,Charter,Hawaii Technology Academy,Hawaii Technology Academy,K-12,21.3347,-158.081,1001 Kamokila Boulevard,96707,551
9,Charter,20,Charter Complex Area,86,551,745,Hawaii Technology Academy PCS,Hawaii Technology Acd Elem-PCS,Charter,Charter,Hawaii Technology Academy,Hawaii Technology Acdademy El,K-12,21.3347,-158.081,1001 Kamokila Boulevard,96707,551
9,Charter,20,Charter Complex Area,86,551,747,Hawaii Technology Academy PCS,Hawaii Technology Acd High-PCS,Charter,Charter,Hawaii Technology Academy,Hawaii Technology Acdademy High,K-12,21.3347,-158.081,1001 Kamokila Boulevard,96707,551
9,Charter,20,Charter Complex Area,86,551,746,Hawaii Technology Academy PCS,Hawaii Technology Acd Mid-PCS,Charter,Charter,Hawaii Technology Academy,Hawaii Technology Acdademy Mid,K-12,21.3347,-158.081,1001 Kamokila Boulevard,96707,551
9,Charter,20,Charter Complex Area,86,554,554,Kihei Charter School,Kihei Charter School - PCS,Charter,Charter,Kihei Charter School,Kihei Charter School,K-12,20.7728,-156.451,300 Ohukai Road,96753,554
9,Charter,20,Charter Complex Area,86,556,556,Ke Kula Ni'ihau o Kekaha Learning Center A Laboratory PCS,Ke Kula Niihau O Kekaha - LPCS,Charter,Charter,Niihau o Kekaha,Niihau o Kekaha,K-12,21.9728,-159.715,8135 Kekaha Road Kekaha,96752,556
9,Charter,20,Charter Complex Area,86,556,960,Ke Kula Ni'ihau o Kekaha Learning Center A Laboratory PCS,Ke Kula Niihau O Kekaha Elem,Charter,Charter,Niihau o Kekaha,Niihau o Kekaha Elem,K-12,21.9728,-159.715,8135 Kekaha Road Kekaha,96752,556
9,Charter,20,Charter Complex Area,86,556,962,Ke Kula Ni'ihau o Kekaha Learning Center A Laboratory PCS,Ke Kula Niihau O Kekaha High,Charter,Charter,Niihau o Kekaha,Niihau o Kekaha High,K-12,21.9728,-159.715,8135 Kekaha Road Kekaha,96752,556
9,Charter,20,Charter Complex Area,86,556,961,Ke Kula Ni'ihau o Kekaha Learning Center A Laboratory PCS,Ke Kula Niihau O Kekaha Middle,Charter,Charter,Niihau o Kekaha,Niihau o Kekaha Mid,K-12,21.9728,-159.715,8135 Kekaha Road Kekaha,96752,556
9,Charter,20,Charter Complex Area,86,557,557,Kua o ka La PCS,Kua O Ka La - PCS,Charter,Charter,Kua o ka La,Kua o ka La,"K-3, 6-12",19.4702,-154.834,Kapoho Kalapana Rd,96788,557
9,Charter,20,Charter Complex Area,86,557,985,Kua o ka La PCS,Kua O Ka La Elem School,Charter,Charter,Kua o ka La,Kua O Ka La El,"K-3, 6-12",19.4702,-154.834,Kapoho Kalapana Rd,96788,557
9,Charter,20,Charter Complex Area,86,557,987,Kua o ka La PCS,Kua O Ka La High School,Charter,Charter,Kua o ka La,Kua O Ka La High,"K-3, 6-12",19.4702,-154.834,Kapoho Kalapana Rd,96788,557
9,Charter,20,Charter Complex Area,86,557,986,Kua o ka La PCS,Kua O Ka La Middle School,Charter,Charter,Kua o ka La,Kua O Ka La Mid,"K-3, 6-12",19.4702,-154.834,Kapoho Kalapana Rd,96788,557
9,Charter,20,Charter Complex Area,86,560,825,Volcano School of Arts and Sciences PCS,Volcano Sch of Arts & Sci Elem,Charter,Charter,Volcano School,Volcano School El,K-8,19.4237,-155.241,1776 University Ave,96822,560
9,Charter,20,Charter Complex Area,86,560,826,Volcano School of Arts and Sciences PCS,Volcano Sch of Arts & Sci Mid,Charter,Charter,Volcano School,Volcano School Mid,K-8,19.4237,-155.241,1776 University Ave,96822,560
9,Charter,20,Charter Complex Area,86,560,560,Volcano School of Arts and Sciences PCS,Volcano School of Arts & Sci,Charter,Charter,Volcano School,Volcano School,K-8,19.4237,-155.241,99128 Old Volcano Rd,96785,560
9,Charter,20,Charter Complex Area,86,561,561,Hawaii Academy of Arts and Science PCS,HI Academy of Arts & Sci - PCS,Charter,Charter,Hawaii Academy,Hawaii Academy,K-12,19.5012,-154.945,15-1397 Homestead Road,96788,561
9,Charter,20,Charter Complex Area,86,561,755,Hawaii Academy of Arts and Science PCS,HI Acd of Arts & Sci Elem-PCS,Charter,Charter,Hawaii Academy,Hawaii Academy El,K-12,19.5012,-154.945,15-1397 Homestead Road,96788,561
9,Charter,20,Charter Complex Area,86,561,757,Hawaii Academy of Arts and Science PCS,HI Acd of Arts & Sci High- PCS,Charter,Charter,Hawaii Academy,Hawaii Academy High,K-12,19.5012,-154.945,15-1397 Homestead Road,96788,561
9,Charter,20,Charter Complex Area,86,561,756,Hawaii Academy of Arts and Science PCS,HI Acd of Arts & Sci Mid- PCS,Charter,Charter,Hawaii Academy,Hawaii Academy Mid,K-12,19.5012,-154.945,15-1397 Homestead Road,96788,561
9,Charter,20,Charter Complex Area,86,562,562,Ka 'Umeke Ka'eo PCS,Ka Umeke Kaeo - PCS,Charter,Charter,Ka Umeke Kaeo,Ka Umeke Kaeo,K-12,19.7286,-155.046,222 Desha Avenue,96720,562
9,Charter,20,Charter Complex Area,86,562,990,Ka 'Umeke Ka'eo PCS,Ka Umeke Kaeo Elem - PCS,Charter,Charter,Ka Umeke Kaeo,Ka Umeke Kaeo El,K-12,19.7286,-155.046,222 Desha Avenue,96720,562
9,Charter,20,Charter Complex Area,86,562,992,Ka 'Umeke Ka'eo PCS,Ka Umeke Kaeo High - PCS,Charter,Charter,Ka Umeke Kaeo,Ka Umeke Kaeo High,K-12,19.7286,-155.046,222 Desha Avenue,96720,562
9,Charter,20,Charter Complex Area,86,562,991,Ka 'Umeke Ka'eo PCS,Ka Umeke Kaeo Middle - PCS,Charter,Charter,Ka Umeke Kaeo,Ka Umeke Kaeo Mid,K-12,19.7286,-155.046,222 Desha Avenue,96720,562
9,Charter,20,Charter Complex Area,86,563,563,Ke Kula 'o Nawahiokalani'opu'u Iki Laboratory PCS,Ke Kula O Nawahiokalani Iki,Charter,Charter,Nawahiokalaniopuu Iki,Nawahiokalaniopuu Iki,K-8,19.605,-155.028,16-120 Opukahaia Street,96749,563
9,Charter,20,Charter Complex Area,86,563,815,Ke Kula 'o Nawahiokalani'opu'u Iki Laboratory PCS,Ke Kula O Nawahiokalani Iki El,Charter,Charter,Nawahiokalaniopuu Iki,Nawahiokalaniopuu Iki El,K-8,19.605,-155.028,16-120 Opukahaia Street,96749,563
9,Charter,20,Charter Complex Area,86,563,816,Ke Kula 'o Nawahiokalani'opu'u Iki Laboratory PCS,Ke Kula O Nawahiokalani Iki Md,Charter,Charter,Nawahiokalaniopuu Iki,Nawahiokalaniopuu Iki Mid,K-8,19.605,-155.028,16-120 Opukahaia Street,96749,563
9,Charter,20,Charter Complex Area,86,564,785,Kanuikapono Learning Center PCS,Kanuikapono Elementary PCS,Charter,Charter,Kanuikapono ,Kanuikapono El,K-12,22.1383,-159.304,4333 Kukuihale Road,96703,564
9,Charter,20,Charter Complex Area,86,564,787,Kanuikapono Learning Center PCS,Kanuikapono High PCS,Charter,Charter,Kanuikapono ,Kanuikapono High,K-12,22.1383,-159.304,4333 Kukuihale Road,96703,564
9,Charter,20,Charter Complex Area,86,564,786,Kanuikapono Learning Center PCS,Kanuikapono Middle PCS,Charter,Charter,Kanuikapono ,Kanuikapono Mid,K-12,22.1383,-159.304,4333 Kukuihale Road,96703,564
9,Charter,20,Charter Complex Area,86,564,564,Kanuikapono Learning Center PCS,Kanuikapono PCS,Charter,Charter,Kanuikapono ,Kanuikapono ,K-12,22.1383,-159.304,4333 Kukuihale Road,96703,564
9,Charter,20,Charter Complex Area,86,565,565,Kawaikini PCS,Kawaikini - PCS,Charter,Charter,Kawaikini,Kawaikini,K-12,21.9597,-159.362,3634 Lala Place,96766,565
9,Charter,20,Charter Complex Area,86,565,795,Kawaikini PCS,Kawaikini Elem School- PCS,Charter,Charter,Kawaikini,Kawaikini El,K-12,21.9597,-159.362,3634 Lala Place,96766,565
9,Charter,20,Charter Complex Area,86,565,797,Kawaikini PCS,Kawaikini High School- PCS,Charter,Charter,Kawaikini,Kawaikini High,K-12,21.9597,-159.362,3634 Lala Place,96766,565
9,Charter,20,Charter Complex Area,86,565,796,Kawaikini PCS,Kawaikini Middle School- PCS,Charter,Charter,Kawaikini,Kawaikini Mid,K-12,21.9597,-159.362,3634 Lala Place,96766,565
9,Charter,20,Charter Complex Area,86,566,566,Kona Pacific PCS,Kona Pacific - PCS,Charter,Charter,Kona Pacific ,Kona Pacific ,K-8,19.52,-155.916,79-7595 Mamalahoa Highway,96750,566
9,Charter,20,Charter Complex Area,86,566,805,Kona Pacific PCS,Kona Pacific Elem School - PCS,Charter,Charter,Kona Pacific ,Kona Pacific El,K-8,19.52,-155.916,79-7595 Mamalahoa Highway,96750,566
9,Charter,20,Charter Complex Area,86,566,806,Kona Pacific PCS,Kona Pacific Mid School- PCS,Charter,Charter,Kona Pacific ,Kona Pacific Mid,K-8,19.52,-155.916,79-7595 Mamalahoa Highway,96750,566
9,Charter,20,Charter Complex Area,86,567,567,School for Examining Essential Questions of Sustainability,SEEQS - PCS,Charter,Charter,School for Examining Essential Questions of Sustainability,SEEQS,7-Jun,21.275,-157.794,845 22nd Ave,96816,567
1,Honolulu,1,Farrington-Kaiser-Kalani,44,105,105,Sanford B. Dole Middle,Dole Middle School,Farrington,Farrington-Kaiser-Kalani,Dole Middle,Dole Mid,8-Jun,21.3431,-157.872,1803 Kamehameha IV Road,96819,105
1,Honolulu,1,Farrington-Kaiser-Kalani,44,106,106,Wallace Rider Farrington High,Farrington High School,Farrington,Farrington-Kaiser-Kalani,Farrington High,Farrington High,12-Sep,21.3307,-157.872,1564 North King Street,96817,106
1,Honolulu,1,Farrington-Kaiser-Kalani,44,107,107,Joseph J. Fern Elementary,Fern Elem School,Farrington,Farrington-Kaiser-Kalani,Fern Elementary,Fern El,K-5,21.3389,-157.882,1121 Middle Street,96819,107
1,Honolulu,1,Farrington-Kaiser-Kalani,44,113,113,Kaewai Elementary,Kaewai Elem School,Farrington,Farrington-Kaiser-Kalani,Kaewai Elementary,Kaewai El,K-5,21.3451,-157.87,1929 Kam IV Road,96819,113
1,Honolulu,1,Farrington-Kaiser-Kalani,44,118,118,King David Kalakaua Middle,Kalakaua Middle School,Farrington,Farrington-Kaiser-Kalani,Kalakaua Middle,Kalakaua Mid,8-Jun,21.3288,-157.877,821 Kalihi Street,96819,118
1,Honolulu,1,Farrington-Kaiser-Kalani,44,120,120,Kalihi Elementary,Kalihi Elem School,Farrington,Farrington-Kaiser-Kalani,Kalihi Elementary,Kalihi El,K-5,21.3558,-157.864,2471 Kula Kolea Drive,96819,120
1,Honolulu,1,Farrington-Kaiser-Kalani,44,121,121,Kalihi-kai Elementary,Kalihi-Kai Elem School,Farrington,Farrington-Kaiser-Kalani,Kalihi­kai Elementary,Kalihi­kai El,K-5,21.326,-157.878,626 McNeill Street,96817,121
1,Honolulu,1,Farrington-Kaiser-Kalani,44,122,122,Kalihi-uka Elementary,Kalihi-Uka Elem School,Farrington,Farrington-Kaiser-Kalani,Kalihi­uka Elementary,Kalihi­uka El,K-5,21.3454,-157.862,2411 Kalihi Street,96819,122
1,Honolulu,1,Farrington-Kaiser-Kalani,44,123,123,Kalihi-waena Elementary,Kalihi-Waena Elem School,Farrington,Farrington-Kaiser-Kalani,Kalihi-waena Elementary,Kalihi­waena El,K-5,21.336,-157.876,1240 Gulick Avenue,96819,123
1,Honolulu,1,Farrington-Kaiser-Kalani,44,124,124,Kapalama Elementary,Kapalama Elem School,Farrington,Farrington-Kaiser-Kalani,Kapalama Elementary,Kapalama El,K-5,21.3351,-157.869,1601 North School Street,96817,124
1,Honolulu,1,Farrington-Kaiser-Kalani,44,133,133,Linapuni Elementary,Linapuni Elem School,Farrington,Farrington-Kaiser-Kalani,Linapuni Elementary,Linapuni El,K-2,21.339,-157.878,1434 Linapuni Street,96819,133
1,Honolulu,1,Farrington-Kaiser-Kalani,44,145,145,Puuhale Elementary,Puuhale Elem School,Farrington,Farrington-Kaiser-Kalani,Puuhale Elementary,Puuhale El,K-5,21.3276,-157.884,345 Puuhale Road,96819,145
1,Honolulu,1,Farrington-Kaiser-Kalani,45,100,100,Aina Haina Elementary,Aina Haina Elem School,Kaiser,Farrington-Kaiser-Kalani,Aina Haina Elementary,Aina Haina El,K-5,21.2781,-157.755,801 W. Hind Drive,96821,100
1,Honolulu,1,Farrington-Kaiser-Kalani,45,108,108,Hahaione Elementary,Hahaione Elem School,Kaiser,Farrington-Kaiser-Kalani,Hahaione Elementary,Hahaione El,K-5,21.2965,-157.71,595 Pepeekeo Street,96825,108
1,Honolulu,1,Farrington-Kaiser-Kalani,45,127,127,Koko Head Elementary,Koko Head Elem School,Kaiser,Farrington-Kaiser-Kalani,Koko Head Elementary,Koko Head El,K-5,21.2748,-157.705,189 Lunalilo Home Road,96825,127
1,Honolulu,1,Farrington-Kaiser-Kalani,45,139,139,Niu Valley Middle,Niu Valley Middle School,Kaiser,Farrington-Kaiser-Kalani,Niu Valley Middle,Niu Valley Mid,8-Jun,21.2854,-157.74,310 Halemaumau Street,96821,139
1,Honolulu,1,Farrington-Kaiser-Kalani,45,151,151,Wailupe Valley Elementary,School Closed Wailupe,Kaiser,Farrington-Kaiser-Kalani,,,,,,,,151
1,Honolulu,1,Farrington-Kaiser-Kalani,45,154,154,Henry J. Kaiser High,Kaiser High School,Kaiser,Farrington-Kaiser-Kalani,Kaiser High,Kaiser High,12-Sep,21.2855,-157.695,511 Lunalilo Home Road,96825,154
1,Honolulu,1,Farrington-Kaiser-Kalani,45,155,155,Kamiloiki Elementary,Kamiloiki Elem School,Kaiser,Farrington-Kaiser-Kalani,Kamiloiki Elementary,Kamiloiki El,K-5,21.2944,-157.685,7788 Hawaii Kai Drive,96825,155
1,Honolulu,1,Farrington-Kaiser-Kalani,46,114,114,Kahala Elementary,Kahala Elem School,Kalani,Farrington-Kaiser-Kalani,Kahala Elementary,Kahala El,K-5,21.2825,-157.785,4559 Kilauea Avenue,96816,114
1,Honolulu,1,Farrington-Kaiser-Kalani,46,116,116,Kaimuki Middle,Kaimuki Middle School,Kalani,Farrington-Kaiser-Kalani,Kaimuki Middle,Kaimuki Mid,8-Jun,21.2696,-157.796,631 18th Avenue,96816,116
1,Honolulu,1,Farrington-Kaiser-Kalani,46,119,119,Kalani High,Kalani High School,Kalani,Farrington-Kaiser-Kalani,Kalani High,Kalani High,12-Sep,21.2785,-157.773,4680 Kalanianaole Highway,96821,119
1,Honolulu,1,Farrington-Kaiser-Kalani,46,130,130,King Liholiho Elementary,Liholiho Elem School,Kalani,Farrington-Kaiser-Kalani,Liholiho Elementary,Liholiho El,K-5,21.2788,-157.807,3430 Maunaloa Avenue,96816,130
1,Honolulu,1,Farrington-Kaiser-Kalani,46,132,132,Queen Lydia Liliuokalani Elementary,School Closed Liliuokalani,Kalani,Farrington-Kaiser-Kalani,Liliuokalani Elementary,Liliuokalani El,K-6,,,,,132
1,Honolulu,1,Farrington-Kaiser-Kalani,46,150,150,Waikiki Elementary,Waikiki Elem School,Kalani,Farrington-Kaiser-Kalani,Waikiki Elementary,Waikiki El,K-6,21.2688,-157.815,3710 Leahi Avenue,96815,150
1,Honolulu,1,Farrington-Kaiser-Kalani,46,153,153,John H. Wilson Elementary,Wilson Elem School,Kalani,Farrington-Kaiser-Kalani,Wilson Elementary,Wilson El,K-5,21.2825,-157.785,4945 Kilauea Avenue,96816,153
1,Honolulu,1,Farrington-Kaiser-Kalani,46,470,470,Hawaii School for the Deaf and the Blind,HI School for the Deaf & Blind,Kalani,Farrington-Kaiser-Kalani,Hawaii School for the Deaf & the Blind,HSDB,K-12,21.2728,-157.816,3440 Leahi Avenue,96815,470
1,Honolulu,1,Farrington-Kaiser-Kalani,46,470,810,Hawaii School for the Deaf and the Blind,HSDB Elem School,Kalani,Farrington-Kaiser-Kalani,Hawaii School for the Deaf & the Blind,HSDB El,K-12,21.2728,-157.816,86-4355 Mamalahoa Highway,96704,470
1,Honolulu,1,Farrington-Kaiser-Kalani,46,470,812,Hawaii School for the Deaf and the Blind,HSDB High School,Kalani,Farrington-Kaiser-Kalani,Hawaii School for the Deaf & the Blind,HSDB High,K-12,21.2728,-157.816,86-4355 Mamalahoa Highway,96704,470
1,Honolulu,1,Farrington-Kaiser-Kalani,46,470,811,Hawaii School for the Deaf and the Blind,HSDB Middle School,Kalani,Farrington-Kaiser-Kalani,Hawaii School for the Deaf & the Blind,HSDB Mid,K-12,21.2728,-157.816,86-4355 Mamalahoa Highway,96704,470
1,Honolulu,1,Farrington-Kaiser-Kalani,46,495,495,Pohukaina,Pohukaina School,Kalani,Farrington-Kaiser-Kalani,Pohukaina,Pohukaina,K-12,21.3031,-157.862,637 18th Avenue,96816,495
6,Maui,14,Hana-Lahainaluna-Lanai-Molokai,79,402,761,Hana High and Elementary,Hana Elem School,Hana,Hana-Lahainaluna-Lanai-Molokai,Hana High & Elementary,Hana El,K-12,20.7803,-156.001,4111 Hana Hwy,96713,402
6,Maui,14,Hana-Lahainaluna-Lanai-Molokai,79,402,402,Hana High and Elementary,Hana High & Elem School,Hana,Hana-Lahainaluna-Lanai-Molokai,Hana High & Elementary,Hana High & El,K-12,20.7803,-156.001,4111 Hana Hwy,96713,402
6,Maui,14,Hana-Lahainaluna-Lanai-Molokai,79,402,763,Hana High and Elementary,Hana High School,Hana,Hana-Lahainaluna-Lanai-Molokai,Hana High & Elementary,Hana High,K-12,20.7803,-156.001,4111 Hana Hwy,96713,402
6,Maui,14,Hana-Lahainaluna-Lanai-Molokai,79,402,762,Hana High and Elementary,Hana Middle School,Hana,Hana-Lahainaluna-Lanai-Molokai,Hana High & Elementary,Hana Mid,K-12,20.7803,-156.001,4111 Hana Hwy,96713,402
6,Maui,14,Hana-Lahainaluna-Lanai-Molokai,79,408,408,Keanae Elementary,Keanae Elem School,Hana,Hana-Lahainaluna-Lanai-Molokai,Keanae Elementary,Keanae El,K-2,20.7783,-155.998,4111 Hana Highway,96713,408
6,Maui,14,Hana-Lahainaluna-Lanai-Molokai,81,406,406,King Kamehameha III Elementary,Kamehameha III Elem School,Lahainaluna,Hana-Lahainaluna-Lanai-Molokai,King Kamehameha III Elementary,Kamehameha III El,K-5,20.9279,-156.674,611 Front Street,96761,406
6,Maui,14,Hana-Lahainaluna-Lanai-Molokai,81,413,413,Lahaina Intermediate,Lahaina Intermediate School,Lahainaluna,Hana-Lahainaluna-Lanai-Molokai,Lahaina Intermediate,Lahaina Inter,8-Jun,20.8856,-156.662,871 Lahainaluna Road,96761,413
6,Maui,14,Hana-Lahainaluna-Lanai-Molokai,81,414,414,Lahainaluna High,Lahainaluna High School,Lahainaluna,Hana-Lahainaluna-Lanai-Molokai,Lahainaluna High,Lahainaluna High,12-Sep,20.8884,-156.66,980 Lahainaluna Road,96761,414
6,Maui,14,Hana-Lahainaluna-Lanai-Molokai,81,429,429,Princess Nahienaena Elementary,Nahienaena Elem School,Lahainaluna,Hana-Lahainaluna-Lanai-Molokai,Nahienaena Elementary,Nahienaena El,K-5,20.8864,-156.663,816 Niheu Street,96761,429
6,Maui,14,Hana-Lahainaluna-Lanai-Molokai,80,415,840,Lanai High & Elementary,Lanai Elem School,Lanai,Hana-Lahainaluna-Lanai-Molokai,Lanai High & Elementary,Lanai El,K-12,20.8306,-156.934,555 Fraser Avenue,96763,415
6,Maui,14,Hana-Lahainaluna-Lanai-Molokai,80,415,415,Lanai High & Elementary,Lanai High & Elem School,Lanai,Hana-Lahainaluna-Lanai-Molokai,Lanai High & Elementary,Lanai High & El,K-12,20.8306,-156.934,555 Fraser Avenue,96763,415
6,Maui,14,Hana-Lahainaluna-Lanai-Molokai,80,415,842,Lanai High & Elementary,Lanai High School,Lanai,Hana-Lahainaluna-Lanai-Molokai,Lanai High & Elementary,Lanai High,K-12,20.8306,-156.934,555 Fraser Avenue,96763,415
6,Maui,14,Hana-Lahainaluna-Lanai-Molokai,80,415,841,Lanai High & Elementary,Lanai Middle School,Lanai,Hana-Lahainaluna-Lanai-Molokai,Lanai High & Elementary,Lanai Mid,K-12,20.8306,-156.934,555 Fraser Avenue,96763,415
6,Maui,14,Hana-Lahainaluna-Lanai-Molokai,82,407,407,Kaunakakai Elementary,Kaunakakai Elem School,Molokai,Hana-Lahainaluna-Lanai-Molokai,Kaunakakai Elementary,Kaunakakai El,K-6,21.0862,-156.997,30 Ailoa St,96748,407
6,Maui,14,Hana-Lahainaluna-Lanai-Molokai,82,410,410,Kilohana Elementary,Kilohana Elem School,Molokai,Hana-Lahainaluna-Lanai-Molokai,Kilohana Elementary,Kilohana El,K-6,21.0631,-156.839,"HC 01, Box 334",96748,410
6,Maui,14,Hana-Lahainaluna-Lanai-Molokai,82,419,419,Maunaloa Elementary,Maunaloa Elem School,Molokai,Hana-Lahainaluna-Lanai-Molokai,Maunaloa Elementary,Maunaloa El,K-6,21.1342,-157.212,128 Maunaloa Hwy,96770,419
6,Maui,14,Hana-Lahainaluna-Lanai-Molokai,82,421,421,Molokai High,Molokai High School,Molokai,Hana-Lahainaluna-Lanai-Molokai,Molokai High,Molokai High,12-Sep,21.1636,-157.048,2140 Farrington Ave,96729,421
6,Maui,14,Hana-Lahainaluna-Lanai-Molokai,82,434,434,Molokai Middle,Molokai Middle School,Molokai,Hana-Lahainaluna-Lanai-Molokai,Molokai Middle,Molokai Middle,8-Jul,21.1642,-157.047,2175 Lihi Pali Avenue,96729,434
5,Hawaii,10,Hilo-Laupahoehoe-Waiakea,66,351,351,Ernest Bowen de Silva Elementary,DeSilva Elem School,Hilo,Hilo-Laupahoehoe-Waiakea,de Silva Elementary,de Silva El,K-6,19.6995,-155.094,278 Ainako Avenue,96720,351
5,Hawaii,10,Hilo-Laupahoehoe-Waiakea,66,352,352,Haaheo Elementary,Haaheo Elem School,Hilo,Hilo-Laupahoehoe-Waiakea,Haaheo Elementary,Haaheo El,K-6,19.7447,-155.094,121 Haaheo Rd,96720,352
5,Hawaii,10,Hilo-Laupahoehoe-Waiakea,66,355,355,Hilo High,Hilo High School,Hilo,Hilo-Laupahoehoe-Waiakea,Hilo High,Hilo High,12-Sep,19.7213,-155.096,556 Waianuenue Avenue,96720,355
5,Hawaii,10,Hilo-Laupahoehoe-Waiakea,66,356,356,Hilo Intermediate,Hilo Inter School,Hilo,Hilo-Laupahoehoe-Waiakea,Hilo Intermediate,Hilo Inter,8-Jul,19.7207,-155.096,587 Waianuenue Avenue,96720,356
5,Hawaii,10,Hilo-Laupahoehoe-Waiakea,66,357,357,Hilo Union Elementary,Hilo Union Elem School,Hilo,Hilo-Laupahoehoe-Waiakea,Hilo Union Elementary,Hilo Union El,K-6,19.6995,-155.096,506 Waianuenue Avenue,96720,357
5,Hawaii,10,Hilo-Laupahoehoe-Waiakea,66,365,850,Kalanianaole Elementary and Intermediate,Kalanianaole Elem School,Hilo,Hilo-Laupahoehoe-Waiakea,Kalanianaole Elementary & Intermediate,Kalanianaole El,K-8,19.7928,-155.211,27-330 Old Mamalahoa Highway,96781,365
5,Hawaii,10,Hilo-Laupahoehoe-Waiakea,66,365,365,Kalanianaole Elementary and Intermediate,Kalanianaole Elem/Inter School,Hilo,Hilo-Laupahoehoe-Waiakea,Kalanianaole Elementary & Intermediate,Kalanianaole E&I,K-8,19.7928,-155.211,27-330 Old Mamalahoa Highway,96781,365
5,Hawaii,10,Hilo-Laupahoehoe-Waiakea,66,365,851,Kalanianaole Elementary and Intermediate,Kalanianaole Middle School,Hilo,Hilo-Laupahoehoe-Waiakea,Kalanianaole Elementary & Intermediate,Kalanianaole Inter,K-8,19.7928,-155.211,27-330 Old Mamalahoa Highway,96781,365
5,Hawaii,10,Hilo-Laupahoehoe-Waiakea,66,367,367,Chiefess Kapiolani Elementary,Kapiolani Elem School,Hilo,Hilo-Laupahoehoe-Waiakea,Kapiolani Elementary,Kapiolani El,K-6,19.7137,-155.079,966 Kilauea Avenue,96720,367
5,Hawaii,10,Hilo-Laupahoehoe-Waiakea,66,369,369,Kaumana Elementary,Kaumana Elem School,Hilo,Hilo-Laupahoehoe-Waiakea,Kaumana Elementary,Kaumana El,K-6,19.686,-155.135,1710 Kaumana Drive,96720,369
5,Hawaii,10,Hilo-Laupahoehoe-Waiakea,66,372,372,Keaukaha Elementary,Keaukaha Elem School,Hilo,Hilo-Laupahoehoe-Waiakea,Keaukaha Elementary,Keaukaha El,K-6,19.7283,-155.045,240 Desha Avenue,96720,372
5,Hawaii,10,Hilo-Laupahoehoe-Waiakea,68,384,384,Waiakea Elementary,Waiakea Elem School,Waiakea,Hilo-Laupahoehoe-Waiakea,Waiakea Elementary,Waiakea El,K-5,19.6946,-155.074,180 W. Puainako Street,96720,384
5,Hawaii,10,Hilo-Laupahoehoe-Waiakea,68,385,385,Waiakea Intermediate,Waiakea Intermediate School,Waiakea,Hilo-Laupahoehoe-Waiakea,Waiakea Intermediate,Waiakea Inter,8-Jun,19.7263,-155.087,200 W. Puainako Street,96720,385
5,Hawaii,10,Hilo-Laupahoehoe-Waiakea,68,386,386,Waiakeawaena Elementary,Waiakeawaena Elem School,Waiakea,Hilo-Laupahoehoe-Waiakea,Waiakeawaena Elementary,Waiakeawaena El,K-5,19.6837,-155.068,2420 Kilauea Avenue,96720,386
5,Hawaii,10,Hilo-Laupahoehoe-Waiakea,68,389,389,Waiakea High,Waiakea High School,Waiakea,Hilo-Laupahoehoe-Waiakea,Waiakea High,Waiakea High,12-Sep,19.7,-155.077,155 W. Kawili Street,96720,389
5,Hawaii,12,Honokaa-Kealakehe-Kohala-Konawaena,72,360,360,Honokaa High and Intermediate,Honokaa High & Inter School,Honokaa,Honokaa-Kealakehe-Kohala-Konawaena,Honokaa High & Intermediate,Honokaa H&I,12-Jul,20.0756,-155.464,45-527 Pakalana Street,96727,360
5,Hawaii,12,Honokaa-Kealakehe-Kohala-Konawaena,72,360,742,Honokaa High and Intermediate,Honokaa High School,Honokaa,Honokaa-Kealakehe-Kohala-Konawaena,Honokaa High & Intermediate,Honokaa High,12-Jul,20.0756,-155.464,45-527 Pakalana Street,96727,360
5,Hawaii,12,Honokaa-Kealakehe-Kohala-Konawaena,72,360,741,Honokaa High and Intermediate,Honokaa Inter School,Honokaa,Honokaa-Kealakehe-Kohala-Konawaena,Honokaa High & Intermediate,Honokaa Inter,12-Jul,20.0756,-155.464,45-527 Pakalana Street,96727,360
5,Hawaii,12,Honokaa-Kealakehe-Kohala-Konawaena,72,361,361,Honokaa Elementary,Honokaa Elem School,Honokaa,Honokaa-Kealakehe-Kohala-Konawaena,Honokaa Elementary,Honokaa El,K-6,20.0715,-155.47,45-534 Pakalana St,96727,361
5,Hawaii,12,Honokaa-Kealakehe-Kohala-Konawaena,72,382,382,Paauilo Elementary & Intermediate,Paauilo Elem & Inter School,Honokaa,Honokaa-Kealakehe-Kohala-Konawaena,Paauilo Elementary & Intermediate,Paauilo El & Inter,K-9,20.0425,-155.365,431497 Hauola Rd,96776,382
5,Hawaii,12,Honokaa-Kealakehe-Kohala-Konawaena,72,382,870,Paauilo Elementary & Intermediate,Paauilo Elem School,Honokaa,Honokaa-Kealakehe-Kohala-Konawaena,Paauilo Elementary & Intermediate,Paauilo El,K-9,20.0425,-155.365,431497 Hauola Rd,96776,382
5,Hawaii,12,Honokaa-Kealakehe-Kohala-Konawaena,72,382,872,Paauilo Elementary & Intermediate,Paauilo High School,Honokaa,Honokaa-Kealakehe-Kohala-Konawaena,Paauilo Elementary & Intermediate,Paauilo High,K-9,20.0425,-155.365,431497 Hauola Rd,96776,382
5,Hawaii,12,Honokaa-Kealakehe-Kohala-Konawaena,72,382,871,Paauilo Elementary & Intermediate,Paauilo Inter School,Honokaa,Honokaa-Kealakehe-Kohala-Konawaena,Paauilo Elementary & Intermediate,Paauilo Inter,K-9,20.0425,-155.365,431497 Hauola Rd,96776,382
5,Hawaii,12,Honokaa-Kealakehe-Kohala-Konawaena,72,387,387,Waimea Elementary,Waimea Elem School,Honokaa,Honokaa-Kealakehe-Kohala-Konawaena,Waimea Elementary,Waimea El,K-5,19.9607,-155.681,67-1225 Mamalahoa Highway,96743,387
5,Hawaii,12,Honokaa-Kealakehe-Kohala-Konawaena,75,358,358,Holualoa Elementary,Holualoa Elem School,Kealakehe,Honokaa-Kealakehe-Kohala-Konawaena,Holualoa Elementary,Holualoa El,K-5,19.62,-155.942,76-5957 Mamalahoa Highway,96725,358
5,Hawaii,12,Honokaa-Kealakehe-Kohala-Konawaena,75,371,371,Kahakai Elementary,Kahakai Elem School,Kealakehe,Honokaa-Kealakehe-Kohala-Konawaena,Kahakai Elementary,Kahakai El,K-5,19.6872,-155.975,76-147 Royal Poinciana Drive,96740,371
5,Hawaii,12,Honokaa-Kealakehe-Kohala-Konawaena,75,388,388,Kealakehe Elementary,Kealakehe Elem School,Kealakehe,Honokaa-Kealakehe-Kohala-Konawaena,Kealakehe Elementary,Kealakehe El,K-5,19.6807,-155.971,74-5118 Kealakaa,96740,388
5,Hawaii,12,Honokaa-Kealakehe-Kohala-Konawaena,75,390,390,Kealakehe Intermediate,Kealakehe Intermediate School,Kealakehe,Honokaa-Kealakehe-Kohala-Konawaena,Kealakehe Intermediate,Kealakehe Inter,8-Jun,19.6872,-155.975,74-5062 Onipa'a Street,96740,390
5,Hawaii,12,Honokaa-Kealakehe-Kohala-Konawaena,75,392,392,Kealakehe High,Kealakehe High School,Kealakehe,Honokaa-Kealakehe-Kohala-Konawaena,Kealakehe High,Kealakehe High,12-Sep,19.6872,-155.975,74-5000 Puohulihuli Street,96740,392
5,Hawaii,12,Honokaa-Kealakehe-Kohala-Konawaena,75,393,791,Waikoloa School,Waikoloa Elementary School,Kealakehe,Honokaa-Kealakehe-Kohala-Konawaena,Waikoloa Elementary & Middle,Waikoloa El,K-7,19.8982,-155.747,68-1730 Ho'oko Street,96738,393
5,Hawaii,12,Honokaa-Kealakehe-Kohala-Konawaena,75,393,792,Waikoloa School,Waikoloa Middle School,Kealakehe,Honokaa-Kealakehe-Kohala-Konawaena,Waikoloa Elementary & Middle,Waikoloa Mid,K-7,19.8982,-155.747,68-1730 Ho'oko Street,96738,393
5,Hawaii,12,Honokaa-Kealakehe-Kohala-Konawaena,75,393,393,Waikoloa School,Waikoloa School,Kealakehe,Honokaa-Kealakehe-Kohala-Konawaena,Waikoloa Elementary & Middle,Waikoloa El & Mid,K-7,19.8982,-155.747,68-1730 Ho'oko Street,96738,393
5,Hawaii,12,Honokaa-Kealakehe-Kohala-Konawaena,74,366,366,Kohala Middle,Kohala Middle School,Kohala,Honokaa-Kealakehe-Kohala-Konawaena,Kohala Middle,Kohala Mid,8-Jun,20.2311,-155.792,534155 Akoni Pule Hwy,96755,366
5,Hawaii,12,Honokaa-Kealakehe-Kohala-Konawaena,74,373,373,Kohala High,Kohala High School,Kohala,Honokaa-Kealakehe-Kohala-Konawaena,Kohala High,Kohala High,12-Sep,20.2311,-155.792,54-3611 Akoni Pule Highway,96755,373
5,Hawaii,12,Honokaa-Kealakehe-Kohala-Konawaena,74,395,395,Kohala Elementary,Kohala Elem School,Kohala,Honokaa-Kealakehe-Kohala-Konawaena,Kohala Elementary,Kohala El,K-5,20.2311,-155.792,543609 Akoni Pule Hwy,96755,395
5,Hawaii,12,Honokaa-Kealakehe-Kohala-Konawaena,73,359,359,Honaunau Elementary,Honaunau Elem School,Konawaena,Honokaa-Kealakehe-Kohala-Konawaena,Honaunau Elementary,Honaunau El ,K-5,19.3547,-155.877,83-5360 Mamalahoa Highway,96704,359
5,Hawaii,12,Honokaa-Kealakehe-Kohala-Konawaena,73,363,363,Hookena Elementary,Hookena Elem School,Konawaena,Honokaa-Kealakehe-Kohala-Konawaena,Hookena Elementary,Hookena El ,K-5,19.3547,-155.877,86-4355 Mamalahoa Highway,96704,363
5,Hawaii,12,Honokaa-Kealakehe-Kohala-Konawaena,73,374,374,Konawaena High,Konawaena High School,Konawaena,Honokaa-Kealakehe-Kohala-Konawaena,Konawaena High,Konawaena High,12-Sep,19.5138,-155.934,81-1043 Konawaena School Road,96750,374
5,Hawaii,12,Honokaa-Kealakehe-Kohala-Konawaena,73,375,375,Konawaena Elementary,Konawaena Elem School,Konawaena,Honokaa-Kealakehe-Kohala-Konawaena,Konawaena Elementary,Konawaena El,K-5,19.5138,-155.934,81-901 Onouli Road,96750,375
5,Hawaii,12,Honokaa-Kealakehe-Kohala-Konawaena,73,376,376,Konawaena Middle,Konawaena Middle School,Konawaena,Honokaa-Kealakehe-Kohala-Konawaena,Konawaena Middle,Konawaena Mid,8-Jun,19.5138,-155.934,81-1045 Konawaena School Road,96750,376
5,Hawaii,12,Honokaa-Kealakehe-Kohala-Konawaena,73,378,378,Ke Kula O Ehunuikaimalino,Ke Kula O Ehunuikaimalino,Konawaena,Honokaa-Kealakehe-Kohala-Konawaena,Ehunuikaimalino,Ehunuikaimalino,K-12,19.5138,-155.934,81-1041 Konawaena School Rd,96750,378
5,Hawaii,12,Honokaa-Kealakehe-Kohala-Konawaena,73,378,831,Ke Kula O Ehunuikaimalino,Ke Kula O Ehunuikaimalino 6-8,Konawaena,Honokaa-Kealakehe-Kohala-Konawaena,Ehunuikaimalino,Ehunuikaimalino 6-10,K-12,19.5138,-155.934,81-1041 Konawaena School Rd,96750,378
5,Hawaii,12,Honokaa-Kealakehe-Kohala-Konawaena,73,378,832,Ke Kula O Ehunuikaimalino,Ke Kula O Ehunuikaimalino 9-12,Konawaena,Honokaa-Kealakehe-Kohala-Konawaena,Ehunuikaimalino,Ehunuikaimalino 9-13,K-12,19.5138,-155.934,81-1041 Konawaena School Rd,96750,378
5,Hawaii,12,Honokaa-Kealakehe-Kohala-Konawaena,73,378,830,Ke Kula O Ehunuikaimalino,Ke Kula O Ehunuikaimalino K-5,Konawaena,Honokaa-Kealakehe-Kohala-Konawaena,Ehunuikaimalino,Ehunuikaimalino K-6,K-12,19.5138,-155.934,81-1041 Konawaena School Rd,96750,378
4,Windward,9,Kailua-Kalaheo,64,302,302,Enchanted Lake Elementary,Enchanted Lake Elem School,Kailua,Kailua-Kalaheo,Enchanted Lake Elementary,Enchanted Lake El,K-6,21.3829,-157.732,770 Keolu Drive,96734,302
4,Windward,9,Kailua-Kalaheo,64,309,309,Kailua High,Kailua High School,Kailua,Kailua-Kalaheo,Kailua High,Kailua High,12-Sep,21.384,-157.75,451 Ulumanu Drive,96734,309
4,Windward,9,Kailua-Kalaheo,64,317,317,Keolu Elementary,Keolu Elem School,Kailua,Kailua-Kalaheo,Keolu Elementary,Keolu El,K-6,21.3717,-157.736,1416 Keolu Drive,96734,317
4,Windward,9,Kailua-Kalaheo,64,321,321,Maunawili Elementary,Maunawili Elem School,Kailua,Kailua-Kalaheo,Maunawili Elementary,Maunawili El,K-6,21.3769,-157.753,1465 Ulupii Street,96734,321
4,Windward,9,Kailua-Kalaheo,64,324,324,Blanche Pope Elementary,Pope Elem School,Kailua,Kailua-Kalaheo,Pope Elementary,Pope El,K-6,21.3282,-157.695,41-133 Huli Street,96795,324
4,Windward,9,Kailua-Kalaheo,64,327,700,Waimanalo Elementary & Intermediate,Waimanalo Elem School,Kailua,Kailua-Kalaheo,Waimanalo Elementary & Intermediate,Waimanalo El,K-8,21.3457,-157.715,41-1330 Kalanianaole Highway,96795,327
4,Windward,9,Kailua-Kalaheo,64,327,327,Waimanalo Elementary & Intermediate,Waimanalo Elem/Inter School,Kailua,Kailua-Kalaheo,Waimanalo Elementary & Intermediate,Waimanalo E&I,K-8,21.3457,-157.715,41-1330 Kalanianaole Highway,96795,327
4,Windward,9,Kailua-Kalaheo,64,327,701,Waimanalo Elementary & Intermediate,Waimanalo Inter School,Kailua,Kailua-Kalaheo,Waimanalo Elementary & Intermediate,Waimanalo Inter,K-8,21.3457,-157.715,41-1330 Kalanianaole Highway,96795,327
4,Windward,9,Kailua-Kalaheo,64,330,330,Kaelepulu Elementary,Kaelepulu Elem School,Kailua,Kailua-Kalaheo,Kaelepulu Elementary,Kaelepulu El,K-6,21.3812,-157.742,530 Keolu Drive,96734,330
4,Windward,9,Kailua-Kalaheo,64,475,891,Olomana,Olomana High School,Kailua,Kailua-Kalaheo,Olomana,Olomana High,12-Jul,21.3746,-157.751,42-522 Kalanianaole Hwy,96734,475
4,Windward,9,Kailua-Kalaheo,64,475,890,Olomana,Olomana Inter School,Kailua,Kailua-Kalaheo,Olomana,Olomana Inter,12-Jul,21.3746,-157.751,42-522 Kalanianaole Hwy,96734,475
4,Windward,9,Kailua-Kalaheo,64,475,475,Olomana,Olomana School,Kailua,Kailua-Kalaheo,Olomana,Olomana,12-Jul,21.3746,-157.751,42-522 Kalanianaole Hwy,96734,475
4,Windward,9,Kailua-Kalaheo,65,300,300,Aikahi Elementary,Aikahi Elem School,Kalaheo,Kailua-Kalaheo,Aikahi Elementary,Aikahi El,K-6,21.4247,-157.75,281 Ilihau Street,96734,300
4,Windward,9,Kailua-Kalaheo,65,308,308,Kailua Elementary,Kailua Elem School,Kalaheo,Kailua-Kalaheo,Kailua Elementary,Kailua El,K-6,21.3956,-157.741,315 Kuulei Road,96734,308
4,Windward,9,Kailua-Kalaheo,65,310,310,Kailua Intermediate,Kailua Inter School,Kalaheo,Kailua-Kalaheo,Kailua Intermediate,Kailua Inter,8-Jul,21.3947,-157.736,145 South Kainalu Drive,96734,310
4,Windward,9,Kailua-Kalaheo,65,311,311,Kainalu Elementary,Kainalu Elem School,Kalaheo,Kailua-Kalaheo,Kainalu Elementary,Kainalu El,K-6,21.4129,-157.749,165 Kaiholu Street,96734,311
4,Windward,9,Kailua-Kalaheo,65,312,312,Kalaheo High,Kalaheo High School,Kalaheo,Kailua-Kalaheo,Kalaheo High,Kalaheo High,12-Sep,21.4091,-157.757,730 Iliaina Street,96734,312
4,Windward,9,Kailua-Kalaheo,65,322,322,Mokapu Elementary,Mokapu Elem School,Kalaheo,Kailua-Kalaheo,Mokapu Elementary,Mokapu El,K-6,21.4434,-157.749,1193 Mokapu Road,96734,322
1,Honolulu,2,Kaimuki-McKinley-Roosevelt,47,101,101,Ala Wai Elementary,Ala Wai Elem School,Kaimuki,Kaimuki-McKinley-Roosevelt,Ala Wai Elementary,Ala Wai El,K-5,21.2849,-157.826,503 Kamoku Street,96826,101
1,Honolulu,2,Kaimuki-McKinley-Roosevelt,47,102,102,Aliiolani Elementary,Aliiolani Elem School,Kaimuki,Kaimuki-McKinley-Roosevelt,Aliiolani Elementary,Aliiolani El,K-5,21.2867,-157.805,1240 7th Avenue,96816,102
1,Honolulu,2,Kaimuki-McKinley-Roosevelt,47,109,109,Hokulani Elementary,Hokulani Elem School,Kaimuki,Kaimuki-McKinley-Roosevelt,Hokulani Elementary,Hokulani El,K-5,21.2908,-157.814,2940 Kamakini Street,96816,109
1,Honolulu,2,Kaimuki-McKinley-Roosevelt,47,110,110,William P. Jarrett Middle,Jarrett Middle School,Kaimuki,Kaimuki-McKinley-Roosevelt,Jarrett Middle,Jarrett Mid,8-Jun,21.298,-157.798,1903 Palolo Avenue,96816,110
1,Honolulu,2,Kaimuki-McKinley-Roosevelt,47,111,111,Thomas Jefferson Elementary,Jefferson Elem School,Kaimuki,Kaimuki-McKinley-Roosevelt,Jefferson Elementary,Jefferson El,K-5,21.2734,-157.818,324 Kapahulu Avenue,96815,111
1,Honolulu,2,Kaimuki-McKinley-Roosevelt,47,115,115,Kaimuki High,Kaimuki High School,Kaimuki,Kaimuki-McKinley-Roosevelt,Kaimuki High,Kaimuki High,12-Sep,21.2867,-157.816,2705 Kaimuki Avenue,96816,115
1,Honolulu,2,Kaimuki-McKinley-Roosevelt,47,128,128,Prince Jonah Kuhio Elementary,Kuhio Elem School,Kaimuki,Kaimuki-McKinley-Roosevelt,Kuhio Elementary,Kuhio El,K-5,21.2896,-157.82,2759 S. King Street,96826,128
1,Honolulu,2,Kaimuki-McKinley-Roosevelt,47,135,135,King William Lunalilo Elementary,Lunalilo Elem School,Kaimuki,Kaimuki-McKinley-Roosevelt,Lunalilo Elementary,Lunalilo El,K-5,21.2918,-157.833,810 Pumehana Street,96826,135
1,Honolulu,2,Kaimuki-McKinley-Roosevelt,47,142,142,Palolo Elementary,Palolo Elem School,Kaimuki,Kaimuki-McKinley-Roosevelt,Palolo Elementary,Palolo El,K-5,21.3,-157.792,2106 10th Avenue,96816,142
1,Honolulu,2,Kaimuki-McKinley-Roosevelt,47,144,144,Jefferson Orthopedic,School Closed Jefferson Ortho,Kaimuki,Kaimuki-McKinley-Roosevelt,Jefferson Orthopedic,Jefferson Orthopedic,K-6,,,,,144
1,Honolulu,2,Kaimuki-McKinley-Roosevelt,47,152,152,George Washington Middle,Washington Middle School,Kaimuki,Kaimuki-McKinley-Roosevelt,Washington Middle,Washington Mid,8-Jun,21.2959,-157.836,1633 S. King Street,96826,152
1,Honolulu,2,Kaimuki-McKinley-Roosevelt,49,104,104,Central Middle,Central Middle School,McKinley,Kaimuki-McKinley-Roosevelt,Central Middle,Central Mid,8-Jun,21.3114,-157.857,1302 Queen Emma Street,96813,104
1,Honolulu,2,Kaimuki-McKinley-Roosevelt,49,112,112,Queen Kaahumanu Elementary,Kaahumanu Elem School,McKinley,Kaimuki-McKinley-Roosevelt,Kaahumanu Elementary,Kaahumanu El,K-5,21.3027,-157.844,1141 Kinau Street,96814,112
1,Honolulu,2,Kaimuki-McKinley-Roosevelt,49,117,117,Princess Victoria Kaiulani Elementary,Kaiulani Elem School,McKinley,Kaimuki-McKinley-Roosevelt,Kaiulani Elementary,Kaiulani El,K-5,21.3212,-157.867,783 North King Street,96817,117
1,Honolulu,2,Kaimuki-McKinley-Roosevelt,49,125,125,Kauluwela Elementary,Kauluwela Elem School,McKinley,Kaimuki-McKinley-Roosevelt,Kauluwela Elementary,Kauluwela El,K-5,21.318,-157.859,1486 Aala Street,96817,125
1,Honolulu,2,Kaimuki-McKinley-Roosevelt,49,129,129,Lanakila Elementary,Lanakila Elementary School,McKinley,Kaimuki-McKinley-Roosevelt,Lanakila Elementary,Lanakila El,K-5,21.3265,-157.861,717 North Kuakini Street,96817,129
1,Honolulu,2,Kaimuki-McKinley-Roosevelt,49,131,131,Princess Miriam K. Likelike Elementary,Likelike Elem School,McKinley,Kaimuki-McKinley-Roosevelt,Likelike Elementary,Likelike El,K-5,21.3242,-157.864,1618 Palama Street,96817,131
1,Honolulu,2,Kaimuki-McKinley-Roosevelt,49,138,138,William McKinley High,McKinley High School,McKinley,Kaimuki-McKinley-Roosevelt,McKinley High,McKinley High,12-Sep,21.299,-157.848,1039 S. King Street,96814,138
1,Honolulu,2,Kaimuki-McKinley-Roosevelt,49,147,147,Royal Elementary,Royal Elem School,McKinley,Kaimuki-McKinley-Roosevelt,Royal Elementary,Royal El,K-5,21.3123,-157.854,1519 Queen Emma Street,96813,147
1,Honolulu,2,Kaimuki-McKinley-Roosevelt,48,103,800,Kula Kaiapuni O Anuenue,Anuenue Elem School,Roosevelt,Kaimuki-McKinley-Roosevelt,Anuenue,Anuenue El,K-12,21.304,-157.79,2525 10th Avenue,96816,103
1,Honolulu,2,Kaimuki-McKinley-Roosevelt,48,103,802,Kula Kaiapuni O Anuenue,Anuenue High School,Roosevelt,Kaimuki-McKinley-Roosevelt,Anuenue,Anuenue High,K-12,21.304,-157.79,2525 10th Avenue,96816,103
1,Honolulu,2,Kaimuki-McKinley-Roosevelt,48,103,801,Kula Kaiapuni O Anuenue,Anuenue Inter School,Roosevelt,Kaimuki-McKinley-Roosevelt,Anuenue,Anuenue Inter,K-12,21.304,-157.79,2525 10th Avenue,96816,103
1,Honolulu,2,Kaimuki-McKinley-Roosevelt,48,103,103,Kula Kaiapuni O Anuenue,Anuenue School,Roosevelt,Kaimuki-McKinley-Roosevelt,Anuenue,Anuenue,K-12,21.304,-157.79,2525 10th Avenue,96816,103
1,Honolulu,2,Kaimuki-McKinley-Roosevelt,48,126,126,Prince David Kawananakoa Middle,Kawananakoa Middle School,Roosevelt,Kaimuki-McKinley-Roosevelt,Kawananakoa Middle,Kawananakoa Mid,8-Jun,21.3191,-157.852,49 Funchal Street,96813,126
1,Honolulu,2,Kaimuki-McKinley-Roosevelt,48,134,134,Abraham Lincoln Elementary,Lincoln Elem School,Roosevelt,Kaimuki-McKinley-Roosevelt,Lincoln Elementary,Lincoln El,K-5,21.3136,-157.84,615 Auwaiolimu Street,96813,134
1,Honolulu,2,Kaimuki-McKinley-Roosevelt,48,136,136,Maemae Elementary,Maemae Elem School,Roosevelt,Kaimuki-McKinley-Roosevelt,Maemae Elementary,Maemae El,K-5,21.3284,-157.848,319 Wyllie Street,96817,136
1,Honolulu,2,Kaimuki-McKinley-Roosevelt,48,137,137,Manoa Elementary,Manoa Elem School,Roosevelt,Kaimuki-McKinley-Roosevelt,Manoa Elementary,Manoa El,K-6,21.3175,-157.809,3155 Manoa Road,96822,137
1,Honolulu,2,Kaimuki-McKinley-Roosevelt,48,140,140,Noelani Elementary,Noelani Elem School,Roosevelt,Kaimuki-McKinley-Roosevelt,Noelani Elementary,Noelani El,K-5,21.306,-157.812,2655 Woodlawn Drive,96822,140
1,Honolulu,2,Kaimuki-McKinley-Roosevelt,48,141,141,Nuuanu Elementary,Nuuanu Elem School,Roosevelt,Kaimuki-McKinley-Roosevelt,Nuuanu Elementary,Nuuanu El,K-5,21.336,-157.835,3055 Puiwa Lane,96817,141
1,Honolulu,2,Kaimuki-McKinley-Roosevelt,48,143,143,Pauoa Elementary,Pauoa Elem School,Roosevelt,Kaimuki-McKinley-Roosevelt,Pauoa Elementary,Pauoa El,K-5,21.3185,-157.844,2301 Pauoa Road,96813,143
1,Honolulu,2,Kaimuki-McKinley-Roosevelt,48,146,146,Theodore Roosevelt High,Roosevelt High School,Roosevelt,Kaimuki-McKinley-Roosevelt,Roosevelt High,Roosevelt High,12-Sep,21.3105,-157.837,1120 Nehoa Street,96822,146
1,Honolulu,2,Kaimuki-McKinley-Roosevelt,48,148,148,Robert Louis Stevenson Middle,Stevenson Middle School,Roosevelt,Kaimuki-McKinley-Roosevelt,Stevenson Middle,Stevenson Mid,8-Jun,21.3101,-157.841,1202 Prospect Street,96822,148
7,Kauai,15,Kapaa-Kauai-Waimea,83,447,447,Kapaa Middle,Kapaa Middle School,Kapaa,Kapaa-Kauai-Waimea,Kapaa Middle,Kapaa Mid,8-Jun,22.0811,-159.343,4867 Olohena Road,96746,447
7,Kauai,15,Kapaa-Kauai-Waimea,83,452,452,Hanalei Elementary,Hanalei Elem School,Kapaa,Kapaa-Kauai-Waimea,Hanalei Elementary,Hanalei El,K-6,22.213,-159.525,5-5415 Kuhio Highway,96714,452
7,Kauai,15,Kapaa-Kauai-Waimea,83,454,454,Kapaa Elementary,Kapaa Elem School,Kapaa,Kapaa-Kauai-Waimea,Kapaa Elementary,Kapaa El,K-5,22.0811,-159.343,4886 Kawaihau Road,96746,454
7,Kauai,15,Kapaa-Kauai-Waimea,83,455,455,Kapaa High,Kapaa High School,Kapaa,Kapaa-Kauai-Waimea,Kapaa High,Kapaa High,12-Sep,22.0811,-159.343,4695 Mailihuna Road,96746,455
7,Kauai,15,Kapaa-Kauai-Waimea,83,459,459,Kilauea Elementary,Kilauea Elem School,Kapaa,Kapaa-Kauai-Waimea,Kilauea Elementary,Kilauea El,K-6,22.2077,-159.407,2440 Kolo Rd.,96754,459
7,Kauai,15,Kapaa-Kauai-Waimea,84,448,448,Chiefess Kamakahelei Middle,Kamakahelei Middle School,Kauai,Kapaa-Kauai-Waimea,Kamakahelei Middle,Kamakahelei Mid,8-Jun,21.9677,-159.388,4431 Nuhou Street,96766,448
7,Kauai,15,Kapaa-Kauai-Waimea,84,456,456,Kauai High,Kauai High School,Kauai,Kapaa-Kauai-Waimea,Kauai High,Kauai High,12-Sep,21.9593,-159.359,3577 Lala Road,96766,456
7,Kauai,15,Kapaa-Kauai-Waimea,84,457,457,King Kaumualii Elementary,Kaumualii Elem School,Kauai,Kapaa-Kauai-Waimea,Kaumualii Elementary,Kaumualii El,K-5,21.9959,-159.352,4380 Hanamaulu Road,96766,457
7,Kauai,15,Kapaa-Kauai-Waimea,84,460,460,Koloa Elementary,Koloa Elem School,Kauai,Kapaa-Kauai-Waimea,Koloa Elementary,Koloa El,K-5,21.8976,-159.466,3223 Poipu Road,96756,460
7,Kauai,15,Kapaa-Kauai-Waimea,84,463,463,Elsie H. Wilcox Elementary,Wilcox Elem School,Kauai,Kapaa-Kauai-Waimea,Wilcox Elementary,Wilcox El,K-5,21.9753,-159.364,4319 Hardy Street,96766,463
7,Kauai,15,Kapaa-Kauai-Waimea,85,451,451,Eleele Elementary,Eleele Elem School,Waimea,Kapaa-Kauai-Waimea,Eleele Elementary,Eleele El,K-5,21.9094,-159.578,4750 Uliuli Rd,96705,451
7,Kauai,15,Kapaa-Kauai-Waimea,85,453,453,Kalaheo Elementary,Kalaheo Elem School,Waimea,Kapaa-Kauai-Waimea,Kalaheo Elementary,Kalaheo El,K-5,21.9202,-159.519,4400 Maka Road,96741,453
7,Kauai,15,Kapaa-Kauai-Waimea,85,458,458,Kekaha Elementary,Kekaha Elem School,Waimea,Kapaa-Kauai-Waimea,Kekaha Elementary,Kekaha El,K-5,22.0055,-159.706,8140 Kekaha Road,96752,458
7,Kauai,15,Kapaa-Kauai-Waimea,85,461,980,Niihau,Niihau Elem,Waimea,Kapaa-Kauai-Waimea,Niihau,Niihau El,K-12,21.9047,-160.204,9707 Tsuchiya Rd,96796,461
7,Kauai,15,Kapaa-Kauai-Waimea,85,461,982,Niihau,Niihau High,Waimea,Kapaa-Kauai-Waimea,Niihau,Niihau High,K-12,21.9047,-160.204,9707 Tsuchiya Rd,96796,461
7,Kauai,15,Kapaa-Kauai-Waimea,85,461,461,Niihau,Niihau High & Elem School,Waimea,Kapaa-Kauai-Waimea,Niihau,Niihau,K-12,21.9047,-160.204,9707 Tsuchiya Rd,96796,461
7,Kauai,15,Kapaa-Kauai-Waimea,85,461,981,Niihau,Niihau Middle,Waimea,Kapaa-Kauai-Waimea,Niihau,Niihau Mid,K-12,21.9047,-160.204,9707 Tsuchiya Rd,96796,461
7,Kauai,15,Kapaa-Kauai-Waimea,85,462,462,Waimea High,Waimea High School,Waimea,Kapaa-Kauai-Waimea,Waimea High,Waimea High,12-Sep,21.9616,-159.669,9707 Tsuchiya Rd,96796,462
7,Kauai,15,Kapaa-Kauai-Waimea,85,464,464,Waimea Canyon Middle,Waimea Canyon School,Waimea,Kapaa-Kauai-Waimea,Waimea Canyon Middle,Waimea Canyon Middle,8-Jun,21.9616,-159.669,9555 Huakai St,96796,464
5,Hawaii,11,Kau-Keaau-Pahoa,70,368,368,Kau High & Pahala Elementary,Kau High & Pahala Elem School,Kau,Kau-Keaau-Pahoa,Kau High & Pahala Elementary,Kau High & Pahala El,K-12,19.2099,-155.519,96-3150 Pikake Street,96777,368
5,Hawaii,11,Kau-Keaau-Pahoa,70,368,753,Kau High & Pahala Elementary,Kau High School,Kau,Kau-Keaau-Pahoa,Kau High & Pahala Elementary,Kau High,K-12,19.2099,-155.519,96-3150 Pikake Street,96777,368
5,Hawaii,11,Kau-Keaau-Pahoa,70,368,752,Kau High & Pahala Elementary,Kau Inter School,Kau,Kau-Keaau-Pahoa,Kau High & Pahala Elementary,Kau Inter,K-12,19.2099,-155.519,96-3150 Pikake Street,96777,368
5,Hawaii,11,Kau-Keaau-Pahoa,70,368,751,Kau High & Pahala Elementary,Pahala Elem School,Kau,Kau-Keaau-Pahoa,Kau High & Pahala Elementary,Pahala El,K-12,19.2099,-155.519,96-3150 Pikake Street,96777,368
5,Hawaii,11,Kau-Keaau-Pahoa,70,380,380,Naalehu Elementary,Naalehu Elem School,Kau,Kau-Keaau-Pahoa,Naalehu Elementary,Naalehu El,K-6,19.0476,-155.622,95-5547 Mamalahoa Hwy,96772,380
5,Hawaii,11,Kau-Keaau-Pahoa,69,353,353,Keaau Elementary,Keaau Elem School,Keaau,Kau-Keaau-Pahoa,Keaau Elementary,Keaau El,K-5,19.5955,-154.985,16-680 Keauu-Pahoa Road,96749,353
5,Hawaii,11,Kau-Keaau-Pahoa,69,354,354,Keaau High,Keaau High School,Keaau,Kau-Keaau-Pahoa,Keaau High,Keaau High,12-Sep,19.5955,-154.985,16-725 Keaau-Pahoa Road,96749,354
5,Hawaii,11,Kau-Keaau-Pahoa,69,370,370,Keaau Middle,Keaau Middle School,Keaau,Kau-Keaau-Pahoa,Keaau Middle,Keaau Mid,8-Jun,19.5955,-154.985,16-565 Keaau-Pahoa Road,96749,370
5,Hawaii,11,Kau-Keaau-Pahoa,69,379,379,Mountain View Elementary,Mountain View Elem School,Keaau,Kau-Keaau-Pahoa,Mountain View Elementary,Mountain View El,K-5,19.5251,-155.126,181235 Volcano Hwy,96771,379
5,Hawaii,11,Kau-Keaau-Pahoa,71,381,381,Pahoa Elementary,Pahoa Elem School,Pahoa,Kau-Keaau-Pahoa,Pahoa Elementary,Pahoa El,K-6,19.487,-154.931,15-3030 Puna Road,96778,381
5,Hawaii,11,Kau-Keaau-Pahoa,71,383,383,Pahoa High & Intermediate,Pahoa High & Inter School,Pahoa,Kau-Keaau-Pahoa,Pahoa High & Intermediate,Pahoa H&I,12-Jul,19.4551,-154.933,15-3038 Puna Road,96778,383
5,Hawaii,11,Kau-Keaau-Pahoa,71,383,881,Pahoa High & Intermediate,Pahoa High School,Pahoa,Kau-Keaau-Pahoa,Pahoa High & Intermediate,Pahoa High,12-Jul,19.4551,-154.933,15-3038 Puna Road,96778,383
5,Hawaii,11,Kau-Keaau-Pahoa,71,383,880,Pahoa High & Intermediate,Pahoa Inter School,Pahoa,Kau-Keaau-Pahoa,Pahoa High & Intermediate,Pahoa Inter,12-Jul,19.4551,-154.933,15-3038 Puna Road,96778,383
5,Hawaii,11,Kau-Keaau-Pahoa,71,391,391,Keonepoko Elementary,Keonepoko Elem School,Pahoa,Kau-Keaau-Pahoa,Keonepoko Elementary,Keonepoko El,K-6,19.487,-154.931,15-890 Kahakai Blvd.,96778,391
2,Central,4,Leilehua-Mililani-Waialua,53,207,207,Hale Kula Elementary,Hale Kula Elem School,Leilehua,Leilehua-Mililani-Waialua,Hale Kula Elementary,Hale Kula El,K-5,21.4992,-158.057,Waianae Ave & Ayers Ave,96786,207
2,Central,4,Leilehua-Mililani-Waialua,53,208,208,Helemano Elementary,Helemano Elem School,Leilehua,Leilehua-Mililani-Waialua,Helemano Elementary,Helemano El,K-5,21.5136,-158.023,1001 Ihi Ihi Avenue,96786,208
2,Central,4,Leilehua-Mililani-Waialua,53,210,210,Iliahi Elementary,Iliahi Elem School,Leilehua,Leilehua-Mililani-Waialua,Iliahi Elementary,Iliahi El,K-5,21.5064,-157.999,2035 California Avenue,96786,210
2,Central,4,Leilehua-Mililani-Waialua,53,211,211,Kaala Elementary,Kaala Elem School,Leilehua,Leilehua-Mililani-Waialua,Kaala Elementary,Kaala El,K-5,21.4939,-158.036,130 California Avenue,96786,211
2,Central,4,Leilehua-Mililani-Waialua,53,214,214,Leilehua High,Leilehua High School,Leilehua,Leilehua-Mililani-Waialua,Leilehua High,Leilehua High,12-Sep,21.5014,-158.013,1515 California Avenue,96786,214
2,Central,4,Leilehua-Mililani-Waialua,53,226,226,Samuel K. Solomon Elementary,Solomon Elem School,Leilehua,Leilehua-Mililani-Waialua,Solomon Elementary,Solomon El,K-5,21.4901,-158.073,2875 Waianae Uka Avenue,96786,226
2,Central,4,Leilehua-Mililani-Waialua,53,229,229,Wahiawa Elementary,Wahiawa Elem School,Leilehua,Leilehua-Mililani-Waialua,Wahiawa Elementary,Wahiawa El,K-5,21.487,-158.039,1402 Glen Avenue,96786,229
2,Central,4,Leilehua-Mililani-Waialua,53,230,230,Wahiawa Middle,Wahiawa Middle School,Leilehua,Leilehua-Mililani-Waialua,Wahiawa Middle,Wahiawa Mid,8-Jun,21.4941,-158.019,275 Rose Street,96786,230
2,Central,4,Leilehua-Mililani-Waialua,53,236,236,Major Sheldon Wheeler Elementary,Wheeler Elem School,Leilehua,Leilehua-Mililani-Waialua,Wheeler Elementary,Wheeler El,K-5,21.4854,-158.036,1 Wheeler Army Airfield,96786,236
2,Central,4,Leilehua-Mililani-Waialua,53,237,237,Major Sheldon Wheeler Middle,Wheeler Middle School,Leilehua,Leilehua-Mililani-Waialua,Wheeler Middle,Wheeler Mid,8-Jun,21.487,-158.039,2 Wheeler Army Airfield,96786,237
2,Central,4,Leilehua-Mililani-Waialua,54,212,212,Kipapa Elementary,Kipapa Elem School,Mililani,Leilehua-Mililani-Waialua,Kipapa Elementary,Kipapa El,K-5,21.4606,-158.012,95-076 Kipapa Drive,96789,212
2,Central,4,Leilehua-Mililani-Waialua,54,216,216,Mililani High,Mililani High School,Mililani,Leilehua-Mililani-Waialua,Mililani High,Mililani High,12-Sep,21.4531,-158.009,95-1200 Meheula Parkway,96789,216
2,Central,4,Leilehua-Mililani-Waialua,54,234,234,Mililani Waena Elementary,Mililani Waena Elem School,Mililani,Leilehua-Mililani-Waialua,Mililani Waena Elementary,Mililani Waena El,K-5,21.4556,-158.01,95-502 Kipapa Drive,96789,234
2,Central,4,Leilehua-Mililani-Waialua,54,238,238,Mililani Middle,Mililani Middle School,Mililani,Leilehua-Mililani-Waialua,Mililani Middle,Mililani Mid,8-Jun,21.4755,-157.99,95-1140 Lehiwa Drive,96789,238
2,Central,4,Leilehua-Mililani-Waialua,54,238,902,Mililani Middle,Mililani Middle School Blue,Mililani,Leilehua-Mililani-Waialua,Mililani Middle,Mililani Mid Blue,8-Jun,21.4755,-157.99,95-1140 Lehiwa Drive,96789,238
2,Central,4,Leilehua-Mililani-Waialua,54,238,901,Mililani Middle,Mililani Middle School Green,Mililani,Leilehua-Mililani-Waialua,Mililani Middle,Mililani Mid Green,8-Jun,21.4755,-157.99,95-1140 Lehiwa Drive,96789,238
2,Central,4,Leilehua-Mililani-Waialua,54,238,903,Mililani Middle,Mililani Middle School Red,Mililani,Leilehua-Mililani-Waialua,Mililani Middle,Mililani Mid Red,8-Jun,21.4755,-157.99,95-1140 Lehiwa Drive,96789,238
2,Central,4,Leilehua-Mililani-Waialua,54,238,900,Mililani Middle,Mililani Middle School Yellow,Mililani,Leilehua-Mililani-Waialua,Mililani Middle,Mililani Mid Yellow,8-Jun,21.4755,-157.99,95-1140 Lehiwa Drive,96789,238
2,Central,4,Leilehua-Mililani-Waialua,54,240,240,Mililani Ike Elementary,Mililani Ike Elem School,Mililani,Leilehua-Mililani-Waialua,Mililani Ike Elementary,Mililani Ike El,K-5,21.4801,-157.985,95-1330 Lehiwa Drive,96789,240
2,Central,4,Leilehua-Mililani-Waialua,54,241,241,Mililani Mauka Elementary,Mililani Mauka Elem School,Mililani,Leilehua-Mililani-Waialua,Mililani Mauka Elementary,Mililani Mauka El,K-5,21.4711,-158.001,95-1111 Makaikai Street,96789,241
2,Central,4,Leilehua-Mililani-Waialua,54,242,242,Mililani Uka Elementary,Mililani Uka Elem School,Mililani,Leilehua-Mililani-Waialua,Mililani Uka Elementary,Mililani Uka El,K-5,21.4372,-158.015,94-380 Kuahelani Avenue,96789,242
2,Central,4,Leilehua-Mililani-Waialua,55,206,206,Haleiwa Elementary,Haleiwa Elem School,Waialua,Leilehua-Mililani-Waialua,Haleiwa Elementary,Haleiwa El,K-6,21.5848,-158.114,66-505 Haleiwa Road,96712,206
2,Central,4,Leilehua-Mililani-Waialua,55,231,231,Waialua Elementary,Waialua Elem School,Waialua,Leilehua-Mililani-Waialua,Waialua Elementary,Waialua El,K-6,21.5754,-158.122,67-020 Waialua Beach Road,96791,231
2,Central,4,Leilehua-Mililani-Waialua,55,232,232,Waialua High & Intermediate,Waialua High & Inter School,Waialua,Leilehua-Mililani-Waialua,Waialua High & Intermediate,Waialua H&I,12-Jul,21.5657,-158.126,67-160 Farrington Highway,96791,232
2,Central,4,Leilehua-Mililani-Waialua,55,232,722,Waialua High & Intermediate,Waialua High School,Waialua,Leilehua-Mililani-Waialua,Waialua High & Intermediate,Waialua High,12-Jul,21.5657,-158.126,67-160 Farrington Highway,96791,232
2,Central,4,Leilehua-Mililani-Waialua,55,232,721,Waialua High & Intermediate,Waialua Inter School,Waialua,Leilehua-Mililani-Waialua,Waialua High & Intermediate,Waialua Inter,12-Jul,21.5657,-158.126,67-160 Farrington Highway,96791,232
3,Leeward,7,Nanakuli-Waianae,58,261,261,Nanaikapono Elementary,Nanaikapono Elem School,Nanakuli,Nanakuli-Waianae,Nanaikapono Elementary,Nanaikapono El,K-6,21.3829,-158.143,89-153 Mano Avenue,96792,261
3,Leeward,7,Nanakuli-Waianae,58,262,262,Nanakuli Elementary,Nanakuli Elem School,Nanakuli,Nanakuli-Waianae,Nanakuli Elementary,Nanakuli El,K-6,21.3876,-158.133,89-778 Haleakala Avenue,96792,262
3,Leeward,7,Nanakuli-Waianae,58,263,263,Nanakuli High & Intermediate,Nanakuli High & Inter School,Nanakuli,Nanakuli-Waianae,Nanakuli High & Intermediate,Nanakuli H&I,12-Jul,21.3885,-158.135,89-980 Nanakuli Avenue,96792,263
3,Leeward,7,Nanakuli-Waianae,58,263,732,Nanakuli High & Intermediate,Nanakuli High School,Nanakuli,Nanakuli-Waianae,Nanakuli High & Intermediate,Nanakuli High,12-Jul,21.3885,-158.135,89-980 Nanakuli Avenue,96792,263
3,Leeward,7,Nanakuli-Waianae,58,263,731,Nanakuli High & Intermediate,Nanakuli Inter School,Nanakuli,Nanakuli-Waianae,Nanakuli High & Intermediate,Nanakuli Inter,12-Jul,21.3885,-158.135,89-980 Nanakuli Avenue,96792,263
3,Leeward,7,Nanakuli-Waianae,59,257,257,Maili Elementary,Maili Elem School,Waianae,Nanakuli-Waianae,Maili Elementary,Maili El,K-6,21.4202,-158.172,87-360 Kula'aupuni Street,96792,257
3,Leeward,7,Nanakuli-Waianae,59,258,258,Makaha Elementary,Makaha Elem School,Waianae,Nanakuli-Waianae,Makaha Elementary,Makaha El,K-6,21.4702,-158.212,84-200 Ala Naauao Place,96792,258
3,Leeward,7,Nanakuli-Waianae,59,270,270,Waianae Elementary,Waianae Elem School,Waianae,Nanakuli-Waianae,Waianae Elementary,Waianae El,K-6,21.445,-158.185,85-220 McArthur Street,96792,270
3,Leeward,7,Nanakuli-Waianae,59,271,271,Leihoku Elementary,Leihoku Elem School,Waianae,Nanakuli-Waianae,Leihoku Elementary,Leihoku El,K-6,21.4393,-158.175,86-285 Leihoku Street,96792,271
3,Leeward,7,Nanakuli-Waianae,59,272,272,Waianae High,Waianae High School,Waianae,Nanakuli-Waianae,Waianae High,Waianae High,12-Sep,21.3881,-158.135,85-251 Farrington Highway,96792,272
3,Leeward,7,Nanakuli-Waianae,59,273,273,Waianae Intermediate,Waianae Inter School,Waianae,Nanakuli-Waianae,Waianae Intermediate,Waianae Inter,8-Jul,21.3881,-158.135,85-626 Farrington Highway,96792,273
10,District-OCISS,37,CA OCISS,97,533,533,OCISS-ATR-E-School,E-School/HVLN,Complex-OCISS,OCISS,,,,,,,,533
10,District-OCISS,37,CA OCISS,97,533,920,OCISS-ATR-E-School,E-School/HVLN Elem,Complex-OCISS,OCISS,,,,,,,,533
10,District-OCISS,37,CA OCISS,97,533,922,OCISS-ATR-E-School,E-School/HVLN High,Complex-OCISS,OCISS,,,,,,,,533
10,District-OCISS,37,CA OCISS,97,533,921,OCISS-ATR-E-School,E-School/HVLN Middle,Complex-OCISS,OCISS,,,,,,,,533
3,Leeward,6,Pearl City-Waipahu,60,255,255,Highlands Intermediate,Highlands Inter School,Pearl City,Pearl City-Waipahu,Highlands Intermediate,Highlands Inter,8-Jul,21.4008,-157.962,1460 Hoolaulea Street,96782,255
3,Leeward,6,Pearl City-Waipahu,60,260,260,Manana Elementary,Manana Elem School,Pearl City,Pearl City-Waipahu,Manana Elementary,Manana El,K-6,21.4085,-157.971,1147 Kumano Street,96782,260
3,Leeward,6,Pearl City-Waipahu,60,264,264,Palisades Elementary,Palisades Elem School,Pearl City,Pearl City-Waipahu,Palisades Elementary,Palisades El,K-6,21.425,-157.953,2306 Auhuhu Street,96782,264
3,Leeward,6,Pearl City-Waipahu,60,265,265,Pearl City Elementary,Pearl City Elem School,Pearl City,Pearl City-Waipahu,Pearl City Elementary,Pearl City El,K-6,21.3955,-157.972,1090 Waimano Home Road,96782,265
3,Leeward,6,Pearl City-Waipahu,60,266,266,Pearl City High,Pearl City High School,Pearl City,Pearl City-Waipahu,Pearl City High,Pearl City High,12-Sep,21.4136,-157.951,2100 Hookiekie Street,96782,266
3,Leeward,6,Pearl City-Waipahu,60,267,267,Pearl City Highlands Elementary,Pearl City Highlands Elem,Pearl City,Pearl City-Waipahu,Pearl City Highlands Elementary,Pearl City Highlands El,K-6,21.4029,-157.966,1419 Waimano Home Road,96782,267
3,Leeward,6,Pearl City-Waipahu,60,268,268,Lehua Elementary,Lehua Elem School,Pearl City,Pearl City-Waipahu,Lehua Elementary,Lehua El,K-6,21.3886,-157.972,791 Lehua Avenue,96782,268
3,Leeward,6,Pearl City-Waipahu,60,283,283,Kanoelani Elementary,Kanoelani Elem School,Pearl City,Pearl City-Waipahu,Kanoelani Elementary,Kanoelani El,K-6,21.416,-157.999,94-1091 Oli Loop,96797,283
3,Leeward,6,Pearl City-Waipahu,60,285,285,Momilani Elementary,Momilani Elem School,Pearl City,Pearl City-Waipahu,Momilani Elementary,Momilani El,K-6,21.413,-157.954,2130 Ho'okiekie Street,96782,285
3,Leeward,6,Pearl City-Waipahu,60,288,288,Waiau Elementary,Waiau Elem School,Pearl City,Pearl City-Waipahu,Waiau Elementary,Waiau El,K-6,21.3987,-157.953,98-450 Hookanike Street,96782,288
3,Leeward,6,Pearl City-Waipahu,61,250,250,August Ahrens Elementary,August Ahrens Elem School,Waipahu,Pearl City-Waipahu,August Ahrens Elementary,August Ahrens El,K-6,21.3931,-158.002,94-1170 Waipahu Street,96797,250
3,Leeward,6,Pearl City-Waipahu,61,274,274,Waipahu Elementary,Waipahu Elem School,Waipahu,Pearl City-Waipahu,Waipahu Elementary,Waipahu El,K-6,21.3852,-158.016,94-465 Waipahu Street,96797,274
3,Leeward,6,Pearl City-Waipahu,61,276,276,Honowai Elementary,Honowai Elem School,Waipahu,Pearl City-Waipahu,Honowai Elementary,Honowai El,K-6,21.3839,-158.026,94-600 Honowai Street,96797,276
3,Leeward,6,Pearl City-Waipahu,61,277,277,Waipahu High,Waipahu High School,Waipahu,Pearl City-Waipahu,Waipahu High,Waipahu High,12-Sep,21.3889,-157.993,94-1211 Farrington Highway,96797,277
3,Leeward,6,Pearl City-Waipahu,61,278,278,Waipahu Intermediate,Waipahu Inter School,Waipahu,Pearl City-Waipahu,Waipahu Intermediate,Waipahu Inter,8-Jul,21.3812,-158.013,94-455 Farrington Highway,96797,278
3,Leeward,6,Pearl City-Waipahu,61,287,287,Kaleiopuu Elementary,Kaleiopuu Elem School,Waipahu,Pearl City-Waipahu,Kaleiopuu Elementary,Kaleiopuu El,K-6,21.3916,-158.027,94-665 Kaaholo Street,96797,287
3,Leeward,6,Pearl City-Waipahu,61,290,290,Waikele Elementary,Waikele Elem School,Waipahu,Pearl City-Waipahu,Waikele Elementary,Waikele El,K-6,21.4021,-158.012,94-1035 Kukula Street,96797,290
